{"type": "FeatureCollection", "features": [{"type": "Feature", "geometry": {"type": "Point", "coordinates": [-0.3739551, 39.4708559]}, "properties": {"zona": 1}}, {"type": "Feature", "geometry": {"type": "Point", "coordinates": [-0.3784605, 39.4676453]}, "properties": {"zona": 2}}, {"type": "Feature", "geometry": {"type": "Point", "coordinates": [-0.3801803, 39.468603]}, "properties": {"zona": 3}}, {"type": "Feature", "geometry": {"type": "Point", "coordinates": [-0.3812876, 39.468506]}, "properties": {"zona": 4}}, {"type": "Feature", "geometry": {"type": "Point", "coordinates": [-0.3804197, 39.4670063]}, "properties": {"zona": 5}}, {"type": "Feature", "geometry": {"type": "Point", "coordinates": [-0.3766562, 39.4677794]}, "properties": {"zona": 6}}, {"type": "Feature", "geometry": {"type": "Point", "coordinates": [-0.3772263, 39.4688897]}, "properties": {"zona": 7}}, {"type": "Feature", "geometry": {"type": "Point", "coordinates": [-0.3736952000000001, 39.4689819]}, "properties": {"zona": 8}}, {"type": "Feature", "geometry": {"type": "Point", "coordinates": [-0.3734927731527503, 39.46906392509983]}, "properties": {"zona": 9}}, {"type": "Feature", "geometry": {"type": "Point", "coordinates": [-0.3736768, 39.4698919]}, "properties": {"zona": 10}}, {"type": "Feature", "geometry": {"type": "Point", "coordinates": [-0.374068, 39.4703182]}, "properties": {"zona": 11}}, {"type": "Feature", "geometry": {"type": "Point", "coordinates": [-0.3745156, 39.4716683]}, "properties": {"zona": 12}}, {"type": "Feature", "geometry": {"type": "Point", "coordinates": [-0.3752113, 39.4704893]}, "properties": {"zona": 13}}, {"type": "Feature", "geometry": {"type": "Point", "coordinates": [-0.3781528, 39.4697186]}, "properties": {"zona": 14}}, {"type": "Feature", "geometry": {"type": "Point", "coordinates": [-0.3786812, 39.4700557]}, "properties": {"zona": 15}}, {"type": "Feature", "geometry": {"type": "Point", "coordinates": [-0.3792018, 39.4699026]}, "properties": {"zona": 16}}, {"type": "Feature", "geometry": {"type": "Point", "coordinates": [-0.3790928000000001, 39.4689605]}, "properties": {"zona": 17}}, {"type": "Feature", "geometry": {"type": "Point", "coordinates": [-0.3809463, 39.46920360000001]}, "properties": {"zona": 18}}, {"type": "Feature", "geometry": {"type": "Point", "coordinates": [-0.3800772, 39.4717718]}, "properties": {"zona": 19}}, {"type": "Feature", "geometry": {"type": "Point", "coordinates": [-0.3794177, 39.4694434]}, "properties": {"zona": 20}}, {"type": "Feature", "geometry": {"type": "Point", "coordinates": [-0.3819187000000001, 39.4689445]}, "properties": {"zona": 21}}, {"type": "Feature", "geometry": {"type": "Point", "coordinates": [-0.376528, 39.4675948]}, "properties": {"zona": 22}}, {"type": "Feature", "geometry": {"type": "Point", "coordinates": [-0.3741094, 39.467926]}, "properties": {"zona": 23}}, {"type": "Feature", "geometry": {"type": "Point", "coordinates": [-0.3734561, 39.4684368]}, "properties": {"zona": 24}}, {"type": "Feature", "geometry": {"type": "Point", "coordinates": [-0.3715223, 39.4696018]}, "properties": {"zona": 25}}, {"type": "Feature", "geometry": {"type": "Point", "coordinates": [-0.3696235, 39.471236]}, "properties": {"zona": 26}}, {"type": "Feature", "geometry": {"type": "Point", "coordinates": [-0.3667711, 39.4701559]}, "properties": {"zona": 27}}, {"type": "Feature", "geometry": {"type": "Point", "coordinates": [-0.3659595, 39.4711156]}, "properties": {"zona": 28}}, {"type": "Feature", "geometry": {"type": "Point", "coordinates": [-0.3756348, 39.4738338]}, "properties": {"zona": 29}}, {"type": "Feature", "geometry": {"type": "Point", "coordinates": [-0.3691241, 39.47326899999999]}, "properties": {"zona": 30}}, {"type": "Feature", "geometry": {"type": "Point", "coordinates": [-0.3700432, 39.4719657]}, "properties": {"zona": 31}}, {"type": "Feature", "geometry": {"type": "Point", "coordinates": [-0.3730954, 39.4780827]}, "properties": {"zona": 32}}, {"type": "Feature", "geometry": {"type": "Point", "coordinates": [-0.36883, 39.47047]}, "properties": {"zona": 33}}, {"type": "Feature", "geometry": {"type": "Point", "coordinates": [-0.3699566, 39.4752948]}, "properties": {"zona": 35}}, {"type": "Feature", "geometry": {"type": "Point", "coordinates": [-0.3686098, 39.476479]}, "properties": {"zona": 36}}, {"type": "Feature", "geometry": {"type": "Point", "coordinates": [-0.372656, 39.4790612]}, "properties": {"zona": 37}}, {"type": "Feature", "geometry": {"type": "Point", "coordinates": [-0.3742297, 39.4786398]}, "properties": {"zona": 38}}, {"type": "Feature", "geometry": {"type": "Point", "coordinates": [-0.3688956, 39.4704328]}, "properties": {"zona": 39}}, {"type": "Feature", "geometry": {"type": "Point", "coordinates": [-0.3712422, 39.4770956]}, "properties": {"zona": 40}}, {"type": "Feature", "geometry": {"type": "Point", "coordinates": [-0.3649102, 39.4696214]}, "properties": {"zona": 41}}, {"type": "Feature", "geometry": {"type": "Point", "coordinates": [-0.3655506000000001, 39.4654768]}, "properties": {"zona": 42}}, {"type": "Feature", "geometry": {"type": "Point", "coordinates": [-0.3735532, 39.4655593]}, "properties": {"zona": 43}}, {"type": "Feature", "geometry": {"type": "Point", "coordinates": [-0.3725524, 39.4663852]}, "properties": {"zona": 44}}, {"type": "Feature", "geometry": {"type": "Point", "coordinates": [-0.3726114, 39.4657556]}, "properties": {"zona": 45}}, {"type": "Feature", "geometry": {"type": "Point", "coordinates": [-0.3716513, 39.4661564]}, "properties": {"zona": 46}}, {"type": "Feature", "geometry": {"type": "Point", "coordinates": [-0.3729791, 39.46460039999999]}, "properties": {"zona": 47}}, {"type": "Feature", "geometry": {"type": "Point", "coordinates": [-0.3724984, 39.46382029999999]}, "properties": {"zona": 48}}, {"type": "Feature", "geometry": {"type": "Point", "coordinates": [-0.3721688, 39.464882]}, "properties": {"zona": 49}}, {"type": "Feature", "geometry": {"type": "Point", "coordinates": [-0.3717751, 39.465351]}, "properties": {"zona": 50}}, {"type": "Feature", "geometry": {"type": "Point", "coordinates": [-0.3717052, 39.4655035]}, "properties": {"zona": 51}}, {"type": "Feature", "geometry": {"type": "Point", "coordinates": [-0.3705848, 39.4672012]}, "properties": {"zona": 52}}, {"type": "Feature", "geometry": {"type": "Point", "coordinates": [-0.3700409, 39.46682149999999]}, "properties": {"zona": 53}}, {"type": "Feature", "geometry": {"type": "Point", "coordinates": [-0.3687121, 39.4668058]}, "properties": {"zona": 54}}, {"type": "Feature", "geometry": {"type": "Point", "coordinates": [-0.3684379, 39.4662095]}, "properties": {"zona": 55}}, {"type": "Feature", "geometry": {"type": "Point", "coordinates": [-0.3674595, 39.4679832]}, "properties": {"zona": 56}}, {"type": "Feature", "geometry": {"type": "Point", "coordinates": [-0.367498, 39.46718810000001]}, "properties": {"zona": 57}}, {"type": "Feature", "geometry": {"type": "Point", "coordinates": [-0.3662279, 39.4671486]}, "properties": {"zona": 58}}, {"type": "Feature", "geometry": {"type": "Point", "coordinates": [-0.3650895, 39.4682004]}, "properties": {"zona": 59}}, {"type": "Feature", "geometry": {"type": "Point", "coordinates": [-0.3747168, 39.4641588]}, "properties": {"zona": 60}}, {"type": "Feature", "geometry": {"type": "Point", "coordinates": [-0.3626537, 39.4689075]}, "properties": {"zona": 61}}, {"type": "Feature", "geometry": {"type": "Point", "coordinates": [-0.367143, 39.4636489]}, "properties": {"zona": 62}}, {"type": "Feature", "geometry": {"type": "Point", "coordinates": [-0.3775489, 39.4630327]}, "properties": {"zona": 63}}, {"type": "Feature", "geometry": {"type": "Point", "coordinates": [-0.3780134, 39.4626929]}, "properties": {"zona": 65}}, {"type": "Feature", "geometry": {"type": "Point", "coordinates": [-0.37605, 39.464239]}, "properties": {"zona": 66}}, {"type": "Feature", "geometry": {"type": "Point", "coordinates": [-0.3690611, 39.46430549999999]}, "properties": {"zona": 67}}, {"type": "Feature", "geometry": {"type": "Point", "coordinates": [-0.3676452, 39.4633191]}, "properties": {"zona": 68}}, {"type": "Feature", "geometry": {"type": "Point", "coordinates": [-0.3656227, 39.4643365]}, "properties": {"zona": 69}}, {"type": "Feature", "geometry": {"type": "Point", "coordinates": [-0.365371, 39.4630126]}, "properties": {"zona": 70}}, {"type": "Feature", "geometry": {"type": "Point", "coordinates": [-0.365651, 39.4637089]}, "properties": {"zona": 71}}, {"type": "Feature", "geometry": {"type": "Point", "coordinates": [-0.365009, 39.4646789]}, "properties": {"zona": 72}}, {"type": "Feature", "geometry": {"type": "Point", "coordinates": [-0.3650959, 39.462459]}, "properties": {"zona": 73}}, {"type": "Feature", "geometry": {"type": "Point", "coordinates": [-0.3642959, 39.4626814]}, "properties": {"zona": 74}}, {"type": "Feature", "geometry": {"type": "Point", "coordinates": [-0.3620377, 39.4649169]}, "properties": {"zona": 76}}, {"type": "Feature", "geometry": {"type": "Point", "coordinates": [-0.361807, 39.4644221]}, "properties": {"zona": 77}}, {"type": "Feature", "geometry": {"type": "Point", "coordinates": [-0.3614128, 39.4636504]}, "properties": {"zona": 78}}, {"type": "Feature", "geometry": {"type": "Point", "coordinates": [-0.3632739, 39.4669643]}, "properties": {"zona": 79}}, {"type": "Feature", "geometry": {"type": "Point", "coordinates": [-0.3599222, 39.4634362]}, "properties": {"zona": 80}}, {"type": "Feature", "geometry": {"type": "Point", "coordinates": [-0.3604396, 39.46144779999999]}, "properties": {"zona": 81}}, {"type": "Feature", "geometry": {"type": "Point", "coordinates": [-0.3604299, 39.4615844]}, "properties": {"zona": 82}}, {"type": "Feature", "geometry": {"type": "Point", "coordinates": [-0.3639926, 39.4608187]}, "properties": {"zona": 83}}, {"type": "Feature", "geometry": {"type": "Point", "coordinates": [-0.3644171, 39.4616553]}, "properties": {"zona": 84}}, {"type": "Feature", "geometry": {"type": "Point", "coordinates": [-0.3609134, 39.4593411]}, "properties": {"zona": 85}}, {"type": "Feature", "geometry": {"type": "Point", "coordinates": [-0.361175, 39.4624737]}, "properties": {"zona": 86}}, {"type": "Feature", "geometry": {"type": "Point", "coordinates": [-0.3613622, 39.4620506]}, "properties": {"zona": 87}}, {"type": "Feature", "geometry": {"type": "Point", "coordinates": [-0.3590014, 39.4618716]}, "properties": {"zona": 88}}, {"type": "Feature", "geometry": {"type": "Point", "coordinates": [-0.3744593, 39.4556709]}, "properties": {"zona": 89}}, {"type": "Feature", "geometry": {"type": "Point", "coordinates": [-0.371383, 39.4559041]}, "properties": {"zona": 90}}, {"type": "Feature", "geometry": {"type": "Point", "coordinates": [-0.3767297, 39.4588008]}, "properties": {"zona": 91}}, {"type": "Feature", "geometry": {"type": "Point", "coordinates": [-0.3749561, 39.4582594]}, "properties": {"zona": 92}}, {"type": "Feature", "geometry": {"type": "Point", "coordinates": [-0.3737192, 39.457618]}, "properties": {"zona": 93}}, {"type": "Feature", "geometry": {"type": "Point", "coordinates": [-0.372886, 39.4605725]}, "properties": {"zona": 94}}, {"type": "Feature", "geometry": {"type": "Point", "coordinates": [-0.371745, 39.4595091]}, "properties": {"zona": 95}}, {"type": "Feature", "geometry": {"type": "Point", "coordinates": [-0.3710818, 39.45980060000001]}, "properties": {"zona": 96}}, {"type": "Feature", "geometry": {"type": "Point", "coordinates": [-0.3710371, 39.4587504]}, "properties": {"zona": 97}}, {"type": "Feature", "geometry": {"type": "Point", "coordinates": [-0.3688806, 39.4586664]}, "properties": {"zona": 98}}, {"type": "Feature", "geometry": {"type": "Point", "coordinates": [-0.3695488, 39.4598226]}, "properties": {"zona": 99}}, {"type": "Feature", "geometry": {"type": "Point", "coordinates": [-0.3692077, 39.4607625]}, "properties": {"zona": 100}}, {"type": "Feature", "geometry": {"type": "Point", "coordinates": [-0.3672407, 39.46020619999999]}, "properties": {"zona": 101}}, {"type": "Feature", "geometry": {"type": "Point", "coordinates": [-0.3654144, 39.4617885]}, "properties": {"zona": 102}}, {"type": "Feature", "geometry": {"type": "Point", "coordinates": [-0.3659959, 39.4625789]}, "properties": {"zona": 103}}, {"type": "Feature", "geometry": {"type": "Point", "coordinates": [-0.3759302, 39.4584267]}, "properties": {"zona": 104}}, {"type": "Feature", "geometry": {"type": "Point", "coordinates": [-0.3667834, 39.4609601]}, "properties": {"zona": 105}}, {"type": "Feature", "geometry": {"type": "Point", "coordinates": [-0.3685863, 39.4600961]}, "properties": {"zona": 106}}, {"type": "Feature", "geometry": {"type": "Point", "coordinates": [-0.3718582, 39.4587393]}, "properties": {"zona": 107}}, {"type": "Feature", "geometry": {"type": "Point", "coordinates": [-0.3743389, 39.4577568]}, "properties": {"zona": 108}}, {"type": "Feature", "geometry": {"type": "Point", "coordinates": [-0.3746432, 39.4545154]}, "properties": {"zona": 109}}, {"type": "Feature", "geometry": {"type": "Point", "coordinates": [-0.3685521, 39.4608472]}, "properties": {"zona": 110}}, {"type": "Feature", "geometry": {"type": "Point", "coordinates": [-0.3728209, 39.4533389]}, "properties": {"zona": 111}}, {"type": "Feature", "geometry": {"type": "Point", "coordinates": [-0.3722997, 39.4596796]}, "properties": {"zona": 112}}, {"type": "Feature", "geometry": {"type": "Point", "coordinates": [-0.3730786, 39.4590478]}, "properties": {"zona": 113}}, {"type": "Feature", "geometry": {"type": "Point", "coordinates": [-0.3745634, 39.4572149]}, "properties": {"zona": 114}}, {"type": "Feature", "geometry": {"type": "Point", "coordinates": [-0.3724631, 39.4581269]}, "properties": {"zona": 115}}, {"type": "Feature", "geometry": {"type": "Point", "coordinates": [-0.3765968, 39.4574228]}, "properties": {"zona": 116}}, {"type": "Feature", "geometry": {"type": "Point", "coordinates": [-0.3776582, 39.4599162]}, "properties": {"zona": 117}}, {"type": "Feature", "geometry": {"type": "Point", "coordinates": [-0.3767398, 39.4568559]}, "properties": {"zona": 118}}, {"type": "Feature", "geometry": {"type": "Point", "coordinates": [-0.3783132914234706, 39.46104954408993]}, "properties": {"zona": 119}}, {"type": "Feature", "geometry": {"type": "Point", "coordinates": [-0.3742314, 39.4605997]}, "properties": {"zona": 120}}, {"type": "Feature", "geometry": {"type": "Point", "coordinates": [-0.384095, 39.4584878]}, "properties": {"zona": 121}}, {"type": "Feature", "geometry": {"type": "Point", "coordinates": [-0.3839012, 39.4568784]}, "properties": {"zona": 122}}, {"type": "Feature", "geometry": {"type": "Point", "coordinates": [-0.3845938, 39.4590734]}, "properties": {"zona": 124}}, {"type": "Feature", "geometry": {"type": "Point", "coordinates": [-0.3861997, 39.4632827]}, "properties": {"zona": 126}}, {"type": "Feature", "geometry": {"type": "Point", "coordinates": [-0.3877363, 39.4634224]}, "properties": {"zona": 127}}, {"type": "Feature", "geometry": {"type": "Point", "coordinates": [-0.3813553, 39.464608]}, "properties": {"zona": 129}}, {"type": "Feature", "geometry": {"type": "Point", "coordinates": [-0.3822003, 39.46409080000001]}, "properties": {"zona": 130}}, {"type": "Feature", "geometry": {"type": "Point", "coordinates": [-0.383343, 39.4580599]}, "properties": {"zona": 131}}, {"type": "Feature", "geometry": {"type": "Point", "coordinates": [-0.383211, 39.4595659]}, "properties": {"zona": 132}}, {"type": "Feature", "geometry": {"type": "Point", "coordinates": [-0.3832576, 39.4567999]}, "properties": {"zona": 133}}, {"type": "Feature", "geometry": {"type": "Point", "coordinates": [-0.3857221, 39.4604219]}, "properties": {"zona": 134}}, {"type": "Feature", "geometry": {"type": "Point", "coordinates": [-0.3866514, 39.4618889]}, "properties": {"zona": 135}}, {"type": "Feature", "geometry": {"type": "Point", "coordinates": [-0.3829302, 39.4611408]}, "properties": {"zona": 136}}, {"type": "Feature", "geometry": {"type": "Point", "coordinates": [-0.3940643, 39.4638032]}, "properties": {"zona": 139}}, {"type": "Feature", "geometry": {"type": "Point", "coordinates": [-0.3946259, 39.46498769999999]}, "properties": {"zona": 141}}, {"type": "Feature", "geometry": {"type": "Point", "coordinates": [-0.3967777, 39.4628716]}, "properties": {"zona": 142}}, {"type": "Feature", "geometry": {"type": "Point", "coordinates": [-0.3962031, 39.46194029999999]}, "properties": {"zona": 143}}, {"type": "Feature", "geometry": {"type": "Point", "coordinates": [-0.3971274, 39.4622947]}, "properties": {"zona": 144}}, {"type": "Feature", "geometry": {"type": "Point", "coordinates": [-0.394381, 39.4658319]}, "properties": {"zona": 145}}, {"type": "Feature", "geometry": {"type": "Point", "coordinates": [-0.4005966, 39.463093]}, "properties": {"zona": 146}}, {"type": "Feature", "geometry": {"type": "Point", "coordinates": [-0.4012018, 39.4645217]}, "properties": {"zona": 147}}, {"type": "Feature", "geometry": {"type": "Point", "coordinates": [-0.4019162000000001, 39.4663404]}, "properties": {"zona": 148}}, {"type": "Feature", "geometry": {"type": "Point", "coordinates": [-0.3992193, 39.4636694]}, "properties": {"zona": 149}}, {"type": "Feature", "geometry": {"type": "Point", "coordinates": [-0.392447, 39.46624389999999]}, "properties": {"zona": 150}}, {"type": "Feature", "geometry": {"type": "Point", "coordinates": [-0.3922923, 39.4664338]}, "properties": {"zona": 151}}, {"type": "Feature", "geometry": {"type": "Point", "coordinates": [-0.3943649, 39.4649434]}, "properties": {"zona": 152}}, {"type": "Feature", "geometry": {"type": "Point", "coordinates": [-0.3938451, 39.4646475]}, "properties": {"zona": 153}}, {"type": "Feature", "geometry": {"type": "Point", "coordinates": [-0.396645, 39.463681]}, "properties": {"zona": 154}}, {"type": "Feature", "geometry": {"type": "Point", "coordinates": [-0.3972265, 39.4632197]}, "properties": {"zona": 155}}, {"type": "Feature", "geometry": {"type": "Point", "coordinates": [-0.3981725, 39.4616358]}, "properties": {"zona": 156}}, {"type": "Feature", "geometry": {"type": "Point", "coordinates": [-0.39874, 39.46189529999999]}, "properties": {"zona": 157}}, {"type": "Feature", "geometry": {"type": "Point", "coordinates": [-0.39874, 39.46189529999999]}, "properties": {"zona": 158}}, {"type": "Feature", "geometry": {"type": "Point", "coordinates": [-0.3989820000000001, 39.4614751]}, "properties": {"zona": 159}}, {"type": "Feature", "geometry": {"type": "Point", "coordinates": [-0.3992005, 39.4608181]}, "properties": {"zona": 160}}, {"type": "Feature", "geometry": {"type": "Point", "coordinates": [-0.4005508, 39.4601603]}, "properties": {"zona": 161}}, {"type": "Feature", "geometry": {"type": "Point", "coordinates": [-0.4002034, 39.4598142]}, "properties": {"zona": 162}}, {"type": "Feature", "geometry": {"type": "Point", "coordinates": [-0.401243, 39.4596568]}, "properties": {"zona": 163}}, {"type": "Feature", "geometry": {"type": "Point", "coordinates": [-0.4019162000000001, 39.4663404]}, "properties": {"zona": 164}}, {"type": "Feature", "geometry": {"type": "Point", "coordinates": [-0.4013502, 39.4640017]}, "properties": {"zona": 165}}, {"type": "Feature", "geometry": {"type": "Point", "coordinates": [-0.401149, 39.4636193]}, "properties": {"zona": 166}}, {"type": "Feature", "geometry": {"type": "Point", "coordinates": [-0.4011136, 39.46357320000001]}, "properties": {"zona": 167}}, {"type": "Feature", "geometry": {"type": "Point", "coordinates": [-0.4027922, 39.46382759999999]}, "properties": {"zona": 168}}, {"type": "Feature", "geometry": {"type": "Point", "coordinates": [-0.4029954, 39.463461]}, "properties": {"zona": 169}}, {"type": "Feature", "geometry": {"type": "Point", "coordinates": [-0.4039861, 39.4634411]}, "properties": {"zona": 170}}, {"type": "Feature", "geometry": {"type": "Point", "coordinates": [-0.4046913, 39.4634396]}, "properties": {"zona": 171}}, {"type": "Feature", "geometry": {"type": "Point", "coordinates": [-0.4033743, 39.464277]}, "properties": {"zona": 172}}, {"type": "Feature", "geometry": {"type": "Point", "coordinates": [-0.3935971, 39.4638624]}, "properties": {"zona": 173}}, {"type": "Feature", "geometry": {"type": "Point", "coordinates": [-0.3927474, 39.4642738]}, "properties": {"zona": 174}}, {"type": "Feature", "geometry": {"type": "Point", "coordinates": [-0.3955393, 39.4638262]}, "properties": {"zona": 175}}, {"type": "Feature", "geometry": {"type": "Point", "coordinates": [-0.3892508, 39.4655511]}, "properties": {"zona": 178}}, {"type": "Feature", "geometry": {"type": "Point", "coordinates": [-0.3913706, 39.4669913]}, "properties": {"zona": 180}}, {"type": "Feature", "geometry": {"type": "Point", "coordinates": [-0.3908261, 39.4683524]}, "properties": {"zona": 181}}, {"type": "Feature", "geometry": {"type": "Point", "coordinates": [-0.3887966, 39.46939769999999]}, "properties": {"zona": 182}}, {"type": "Feature", "geometry": {"type": "Point", "coordinates": [-0.3902381, 39.469059]}, "properties": {"zona": 183}}, {"type": "Feature", "geometry": {"type": "Point", "coordinates": [-0.3855496375653576, 39.46612540885144]}, "properties": {"zona": 184}}, {"type": "Feature", "geometry": {"type": "Point", "coordinates": [-0.3923389, 39.4705309]}, "properties": {"zona": 185}}, {"type": "Feature", "geometry": {"type": "Point", "coordinates": [-0.3934632, 39.4720757]}, "properties": {"zona": 186}}, {"type": "Feature", "geometry": {"type": "Point", "coordinates": [-0.3926249, 39.4764254]}, "properties": {"zona": 187}}, {"type": "Feature", "geometry": {"type": "Point", "coordinates": [-0.3936403, 39.4744067]}, "properties": {"zona": 188}}, {"type": "Feature", "geometry": {"type": "Point", "coordinates": [-0.3948221, 39.4753861]}, "properties": {"zona": 189}}, {"type": "Feature", "geometry": {"type": "Point", "coordinates": [-0.3935728, 39.46640850000001]}, "properties": {"zona": 190}}, {"type": "Feature", "geometry": {"type": "Point", "coordinates": [-0.3922198, 39.4828243]}, "properties": {"zona": 191}}, {"type": "Feature", "geometry": {"type": "Point", "coordinates": [-0.3892338, 39.4633761]}, "properties": {"zona": 192}}, {"type": "Feature", "geometry": {"type": "Point", "coordinates": [-0.3945239, 39.4724776]}, "properties": {"zona": 193}}, {"type": "Feature", "geometry": {"type": "Point", "coordinates": [-0.3883003, 39.4666812]}, "properties": {"zona": 194}}, {"type": "Feature", "geometry": {"type": "Point", "coordinates": [-0.3906994, 39.4744746]}, "properties": {"zona": 195}}, {"type": "Feature", "geometry": {"type": "Point", "coordinates": [-0.3921993, 39.4683953]}, "properties": {"zona": 196}}, {"type": "Feature", "geometry": {"type": "Point", "coordinates": [-0.3944965, 39.4734918]}, "properties": {"zona": 197}}, {"type": "Feature", "geometry": {"type": "Point", "coordinates": [-0.3877731, 39.4645922]}, "properties": {"zona": 198}}, {"type": "Feature", "geometry": {"type": "Point", "coordinates": [-0.3872197, 39.4659058]}, "properties": {"zona": 199}}, {"type": "Feature", "geometry": {"type": "Point", "coordinates": [-0.387744, 39.4704213]}, "properties": {"zona": 200}}, {"type": "Feature", "geometry": {"type": "Point", "coordinates": [-0.388845, 39.467337]}, "properties": {"zona": 201}}, {"type": "Feature", "geometry": {"type": "Point", "coordinates": [-0.3937886, 39.4729838]}, "properties": {"zona": 202}}, {"type": "Feature", "geometry": {"type": "Point", "coordinates": [-0.39485, 39.4755917]}, "properties": {"zona": 203}}, {"type": "Feature", "geometry": {"type": "Point", "coordinates": [-0.3953362, 39.4685906]}, "properties": {"zona": 204}}, {"type": "Feature", "geometry": {"type": "Point", "coordinates": [-0.4001103000317104, 39.46901570234328]}, "properties": {"zona": 205}}, {"type": "Feature", "geometry": {"type": "Point", "coordinates": [-0.4015794, 39.4694872]}, "properties": {"zona": 206}}, {"type": "Feature", "geometry": {"type": "Point", "coordinates": [-0.4054033, 39.4695821]}, "properties": {"zona": 207}}, {"type": "Feature", "geometry": {"type": "Point", "coordinates": [-0.4118311, 39.4691147]}, "properties": {"zona": 208}}, {"type": "Feature", "geometry": {"type": "Point", "coordinates": [-0.413281, 39.4699637]}, "properties": {"zona": 209}}, {"type": "Feature", "geometry": {"type": "Point", "coordinates": [-0.413328, 39.4690958]}, "properties": {"zona": 210}}, {"type": "Feature", "geometry": {"type": "Point", "coordinates": [-0.4156094, 39.4689944]}, "properties": {"zona": 211}}, {"type": "Feature", "geometry": {"type": "Point", "coordinates": [-0.4135393, 39.4699711]}, "properties": {"zona": 212}}, {"type": "Feature", "geometry": {"type": "Point", "coordinates": [-0.4054164696102461, 39.47276350326665]}, "properties": {"zona": 213}}, {"type": "Feature", "geometry": {"type": "Point", "coordinates": [-0.4054915398517855, 39.471148316075215]}, "properties": {"zona": 214}}, {"type": "Feature", "geometry": {"type": "Point", "coordinates": [-0.3756348, 39.4738338]}, "properties": {"zona": 215}}, {"type": "Feature", "geometry": {"type": "Point", "coordinates": [-0.4013832, 39.4728804]}, "properties": {"zona": 216}}, {"type": "Feature", "geometry": {"type": "Point", "coordinates": [-0.3980516, 39.4742392]}, "properties": {"zona": 217}}, {"type": "Feature", "geometry": {"type": "Point", "coordinates": [-0.4059177, 39.4736745]}, "properties": {"zona": 218}}, {"type": "Feature", "geometry": {"type": "Point", "coordinates": [-0.394214, 39.4704859]}, "properties": {"zona": 219}}, {"type": "Feature", "geometry": {"type": "Point", "coordinates": [-0.3756348, 39.4738338]}, "properties": {"zona": 220}}, {"type": "Feature", "geometry": {"type": "Point", "coordinates": [-0.3915547, 39.4766964]}, "properties": {"zona": 221}}, {"type": "Feature", "geometry": {"type": "Point", "coordinates": [-0.4029789, 39.469743]}, "properties": {"zona": 222}}, {"type": "Feature", "geometry": {"type": "Point", "coordinates": [-0.39485, 39.4755917]}, "properties": {"zona": 223}}, {"type": "Feature", "geometry": {"type": "Point", "coordinates": [-0.4056106, 39.4696779]}, "properties": {"zona": 224}}, {"type": "Feature", "geometry": {"type": "Point", "coordinates": [-0.3953309, 39.46862489999999]}, "properties": {"zona": 225}}, {"type": "Feature", "geometry": {"type": "Point", "coordinates": [-0.3937355, 39.4685002]}, "properties": {"zona": 226}}, {"type": "Feature", "geometry": {"type": "Point", "coordinates": [-0.3980516, 39.4742392]}, "properties": {"zona": 227}}, {"type": "Feature", "geometry": {"type": "Point", "coordinates": [-0.4001127, 39.4691484]}, "properties": {"zona": 228}}, {"type": "Feature", "geometry": {"type": "Point", "coordinates": [-0.3993582, 39.4738506]}, "properties": {"zona": 229}}, {"type": "Feature", "geometry": {"type": "Point", "coordinates": [-0.406592, 39.4695442]}, "properties": {"zona": 230}}, {"type": "Feature", "geometry": {"type": "Point", "coordinates": [-0.3928221, 39.4803756]}, "properties": {"zona": 231}}, {"type": "Feature", "geometry": {"type": "Point", "coordinates": [-0.3906446, 39.4780655]}, "properties": {"zona": 232}}, {"type": "Feature", "geometry": {"type": "Point", "coordinates": [-0.390374, 39.486425]}, "properties": {"zona": 233}}, {"type": "Feature", "geometry": {"type": "Point", "coordinates": [-0.3922198, 39.4828243]}, "properties": {"zona": 234}}, {"type": "Feature", "geometry": {"type": "Point", "coordinates": [-0.3919411, 39.4878242]}, "properties": {"zona": 235}}, {"type": "Feature", "geometry": {"type": "Point", "coordinates": [-0.3888456, 39.4871757]}, "properties": {"zona": 236}}, {"type": "Feature", "geometry": {"type": "Point", "coordinates": [-0.3883002, 39.487646]}, "properties": {"zona": 237}}, {"type": "Feature", "geometry": {"type": "Point", "coordinates": [-0.3889806, 39.4885624]}, "properties": {"zona": 238}}, {"type": "Feature", "geometry": {"type": "Point", "coordinates": [-0.3883551, 39.48909]}, "properties": {"zona": 239}}, {"type": "Feature", "geometry": {"type": "Point", "coordinates": [-0.3838284, 39.4843939]}, "properties": {"zona": 240}}, {"type": "Feature", "geometry": {"type": "Point", "coordinates": [-0.3920727, 39.4812004]}, "properties": {"zona": 241}}, {"type": "Feature", "geometry": {"type": "Point", "coordinates": [-0.3907192, 39.4800023]}, "properties": {"zona": 242}}, {"type": "Feature", "geometry": {"type": "Point", "coordinates": [-0.3845041, 39.4817142]}, "properties": {"zona": 243}}, {"type": "Feature", "geometry": {"type": "Point", "coordinates": [-0.3830541, 39.4824463]}, "properties": {"zona": 244}}, {"type": "Feature", "geometry": {"type": "Point", "coordinates": [-0.380877, 39.4831936]}, "properties": {"zona": 245}}, {"type": "Feature", "geometry": {"type": "Point", "coordinates": [-0.3866791, 39.4891122]}, "properties": {"zona": 246}}, {"type": "Feature", "geometry": {"type": "Point", "coordinates": [-0.3853348, 39.4893752]}, "properties": {"zona": 247}}, {"type": "Feature", "geometry": {"type": "Point", "coordinates": [-0.3817261, 39.4902932]}, "properties": {"zona": 249}}, {"type": "Feature", "geometry": {"type": "Point", "coordinates": [-0.3847943, 39.4816065]}, "properties": {"zona": 250}}, {"type": "Feature", "geometry": {"type": "Point", "coordinates": [-0.3834769, 39.4808243]}, "properties": {"zona": 251}}, {"type": "Feature", "geometry": {"type": "Point", "coordinates": [-0.3829256, 39.4821576]}, "properties": {"zona": 252}}, {"type": "Feature", "geometry": {"type": "Point", "coordinates": [-0.3874877, 39.4801368]}, "properties": {"zona": 253}}, {"type": "Feature", "geometry": {"type": "Point", "coordinates": [-0.3843006, 39.4851396]}, "properties": {"zona": 254}}, {"type": "Feature", "geometry": {"type": "Point", "coordinates": [-0.38349, 39.4855884]}, "properties": {"zona": 255}}, {"type": "Feature", "geometry": {"type": "Point", "coordinates": [-0.3815913, 39.4857349]}, "properties": {"zona": 256}}, {"type": "Feature", "geometry": {"type": "Point", "coordinates": [-0.3798013, 39.4831145]}, "properties": {"zona": 257}}, {"type": "Feature", "geometry": {"type": "Point", "coordinates": [-0.3796542, 39.483115]}, "properties": {"zona": 258}}, {"type": "Feature", "geometry": {"type": "Point", "coordinates": [-0.3776412, 39.483107]}, "properties": {"zona": 259}}, {"type": "Feature", "geometry": {"type": "Point", "coordinates": [-0.3788671, 39.4846651]}, "properties": {"zona": 260}}, {"type": "Feature", "geometry": {"type": "Point", "coordinates": [-0.3766791, 39.4829952]}, "properties": {"zona": 261}}, {"type": "Feature", "geometry": {"type": "Point", "coordinates": [-0.3754791, 39.4820975]}, "properties": {"zona": 262}}, {"type": "Feature", "geometry": {"type": "Point", "coordinates": [-0.3748759, 39.4819716]}, "properties": {"zona": 263}}, {"type": "Feature", "geometry": {"type": "Point", "coordinates": [-0.3759265, 39.4822834]}, "properties": {"zona": 264}}, {"type": "Feature", "geometry": {"type": "Point", "coordinates": [-0.3727176, 39.4818283]}, "properties": {"zona": 265}}, {"type": "Feature", "geometry": {"type": "Point", "coordinates": [-0.3719305, 39.4822214]}, "properties": {"zona": 266}}, {"type": "Feature", "geometry": {"type": "Point", "coordinates": [-0.3713303, 39.4823747]}, "properties": {"zona": 267}}, {"type": "Feature", "geometry": {"type": "Point", "coordinates": [-0.3716986, 39.4843621]}, "properties": {"zona": 268}}, {"type": "Feature", "geometry": {"type": "Point", "coordinates": [-0.3705576, 39.4831233]}, "properties": {"zona": 269}}, {"type": "Feature", "geometry": {"type": "Point", "coordinates": [-0.3710439, 39.4841994]}, "properties": {"zona": 270}}, {"type": "Feature", "geometry": {"type": "Point", "coordinates": [-0.3701133, 39.48494669999999]}, "properties": {"zona": 271}}, {"type": "Feature", "geometry": {"type": "Point", "coordinates": [-0.3701635, 39.4853096]}, "properties": {"zona": 272}}, {"type": "Feature", "geometry": {"type": "Point", "coordinates": [-0.3699997, 39.48560190000001]}, "properties": {"zona": 273}}, {"type": "Feature", "geometry": {"type": "Point", "coordinates": [-0.3718112, 39.4854132]}, "properties": {"zona": 274}}, {"type": "Feature", "geometry": {"type": "Point", "coordinates": [-0.3717044, 39.4848367]}, "properties": {"zona": 275}}, {"type": "Feature", "geometry": {"type": "Point", "coordinates": [-0.3903414, 39.4751521]}, "properties": {"zona": 276}}, {"type": "Feature", "geometry": {"type": "Point", "coordinates": [-0.374094, 39.4815841]}, "properties": {"zona": 277}}, {"type": "Feature", "geometry": {"type": "Point", "coordinates": [-0.3718311, 39.4866856]}, "properties": {"zona": 278}}, {"type": "Feature", "geometry": {"type": "Point", "coordinates": [-0.3730535, 39.4868545]}, "properties": {"zona": 279}}, {"type": "Feature", "geometry": {"type": "Point", "coordinates": [-0.3752168, 39.4866294]}, "properties": {"zona": 280}}, {"type": "Feature", "geometry": {"type": "Point", "coordinates": [-0.3765527, 39.4865289]}, "properties": {"zona": 281}}, {"type": "Feature", "geometry": {"type": "Point", "coordinates": [-0.3778473, 39.4860186]}, "properties": {"zona": 282}}, {"type": "Feature", "geometry": {"type": "Point", "coordinates": [-0.3759025, 39.4863153]}, "properties": {"zona": 283}}, {"type": "Feature", "geometry": {"type": "Point", "coordinates": [-0.3745636, 39.4864313]}, "properties": {"zona": 284}}, {"type": "Feature", "geometry": {"type": "Point", "coordinates": [-0.3724775, 39.4866157]}, "properties": {"zona": 285}}, {"type": "Feature", "geometry": {"type": "Point", "coordinates": [-0.3718761, 39.48554]}, "properties": {"zona": 286}}, {"type": "Feature", "geometry": {"type": "Point", "coordinates": [-0.3713413, 39.4859718]}, "properties": {"zona": 287}}, {"type": "Feature", "geometry": {"type": "Point", "coordinates": [-0.3691372, 39.4865558]}, "properties": {"zona": 288}}, {"type": "Feature", "geometry": {"type": "Point", "coordinates": [-0.3728064, 39.486685]}, "properties": {"zona": 289}}, {"type": "Feature", "geometry": {"type": "Point", "coordinates": [-0.3756348, 39.4738338]}, "properties": {"zona": 290}}, {"type": "Feature", "geometry": {"type": "Point", "coordinates": [-0.375146, 39.48677230000001]}, "properties": {"zona": 291}}, {"type": "Feature", "geometry": {"type": "Point", "coordinates": [-0.3760825034233846, 39.48680368191676]}, "properties": {"zona": 292}}, {"type": "Feature", "geometry": {"type": "Point", "coordinates": [-0.3719852, 39.4844167]}, "properties": {"zona": 293}}, {"type": "Feature", "geometry": {"type": "Point", "coordinates": [-0.3780566, 39.4853015]}, "properties": {"zona": 294}}, {"type": "Feature", "geometry": {"type": "Point", "coordinates": [-0.3772537, 39.485643]}, "properties": {"zona": 295}}, {"type": "Feature", "geometry": {"type": "Point", "coordinates": [-0.376635, 39.48527259999999]}, "properties": {"zona": 296}}, {"type": "Feature", "geometry": {"type": "Point", "coordinates": [-0.3748194, 39.4854984]}, "properties": {"zona": 297}}, {"type": "Feature", "geometry": {"type": "Point", "coordinates": [-0.3801508, 39.4860041]}, "properties": {"zona": 298}}, {"type": "Feature", "geometry": {"type": "Point", "coordinates": [-0.3728331, 39.4849542]}, "properties": {"zona": 299}}, {"type": "Feature", "geometry": {"type": "Point", "coordinates": [-0.3802036, 39.4905501]}, "properties": {"zona": 300}}, {"type": "Feature", "geometry": {"type": "Point", "coordinates": [-0.3792413, 39.4919394]}, "properties": {"zona": 301}}, {"type": "Feature", "geometry": {"type": "Point", "coordinates": [-0.3776241, 39.4914722]}, "properties": {"zona": 302}}, {"type": "Feature", "geometry": {"type": "Point", "coordinates": [-0.3754292, 39.4898587]}, "properties": {"zona": 303}}, {"type": "Feature", "geometry": {"type": "Point", "coordinates": [-0.3756678, 39.4918317]}, "properties": {"zona": 304}}, {"type": "Feature", "geometry": {"type": "Point", "coordinates": [-0.3851201, 39.4894589]}, "properties": {"zona": 305}}, {"type": "Feature", "geometry": {"type": "Point", "coordinates": [-0.3838336, 39.4905877]}, "properties": {"zona": 306}}, {"type": "Feature", "geometry": {"type": "Point", "coordinates": [-0.3805119, 39.4949186]}, "properties": {"zona": 307}}, {"type": "Feature", "geometry": {"type": "Point", "coordinates": [-0.3728033, 39.4914753]}, "properties": {"zona": 308}}, {"type": "Feature", "geometry": {"type": "Point", "coordinates": [-0.3737145000000001, 39.4916544]}, "properties": {"zona": 309}}, {"type": "Feature", "geometry": {"type": "Point", "coordinates": [-0.3764583, 39.4913123]}, "properties": {"zona": 310}}, {"type": "Feature", "geometry": {"type": "Point", "coordinates": [-0.3763263, 39.4914521]}, "properties": {"zona": 311}}, {"type": "Feature", "geometry": {"type": "Point", "coordinates": [-0.3723633, 39.4912059]}, "properties": {"zona": 312}}, {"type": "Feature", "geometry": {"type": "Point", "coordinates": [-0.3811571, 39.4903292]}, "properties": {"zona": 314}}]}