{"type": "FeatureCollection", "features": [{"type": "Feature", "geometry": {"type": "Polygon", "coordinates": [[[-0.3859589, 39.4660303], [-0.3951294, 39.4667138], [-0.3977959, 39.4681515], [-0.3988725, 39.4692245], [-0.4015614, 39.4728562], [-0.4012199, 39.4742237], [-0.3996006, 39.4772693], [-0.3986977, 39.4789069], [-0.3924419, 39.4802926], [-0.3916163, 39.4802189], [-0.3884984, 39.4796874], [-0.3868037, 39.4793043], [-0.3831838, 39.4768765], [-0.3828257, 39.4765867], [-0.3822112, 39.4760643], [-0.3812286, 39.4747164], [-0.3810309, 39.4734767], [-0.3857157, 39.466291], [-0.3859589, 39.4660303]]]}, "properties": {"name": "Centro de Salud C.S.I Juan Llorens", "type": "centro_salud"}}, {"type": "Feature", "geometry": {"type": "Point", "coordinates": [-0.3916446051955931, 39.47361976452811]}, "properties": {"name": "Centro de Salud C.S.I Juan Llorens", "type": "centro_salud", "point": true}}, {"type": "Feature", "geometry": {"type": "Polygon", "coordinates": [[[-0.3907059, 39.4860093], [-0.3935221, 39.4867563], [-0.3988272, 39.4897149], [-0.3996628, 39.4908805], [-0.3986487, 39.4974151], [-0.3975619, 39.4993772], [-0.3951143, 39.5000092], [-0.3942857, 39.5001587], [-0.3929804, 39.5002227], [-0.3894437, 39.4999707], [-0.3892704, 39.4999489], [-0.3819244, 39.4982198], [-0.381078, 39.496636], [-0.3808151, 39.4960356], [-0.3808087, 39.49602], [-0.3807113, 39.4957824], [-0.3799248, 39.4935101], [-0.3818219, 39.4904398], [-0.3821905, 39.4900652], [-0.383929, 39.4883345], [-0.3873046, 39.4866634], [-0.3887192, 39.4863499], [-0.3907059, 39.4860093]]]}, "properties": {"name": "Centro de Salud Lliri", "type": "centro_salud"}}, {"type": "Feature", "geometry": {"type": "Point", "coordinates": [-0.3904730979264747, 39.49360291031931]}, "properties": {"name": "Centro de Salud Lliri", "type": "centro_salud", "point": true}}, {"type": "Feature", "geometry": {"type": "Polygon", "coordinates": [[[-0.3932811, 39.4813544], [-0.3983234, 39.4824654], [-0.3998729, 39.4828099], [-0.401169, 39.4831035], [-0.4017149, 39.4834504], [-0.4017302, 39.4835907], [-0.4005243, 39.4880675], [-0.3999079, 39.489723], [-0.399741, 39.4899366], [-0.3989443, 39.4906251], [-0.3967134, 39.4916891], [-0.3948497, 39.4921669], [-0.3932194, 39.4923162], [-0.3906175, 39.492294], [-0.3873783, 39.4910785], [-0.3850763, 39.4896956], [-0.3857623, 39.4869485], [-0.3861757, 39.4857394], [-0.3877636, 39.4838943], [-0.3923852, 39.4817147], [-0.3932811, 39.4813544]]]}, "properties": {"name": "Centro de Salud Miguel Servet", "type": "centro_salud"}}, {"type": "Feature", "geometry": {"type": "Point", "coordinates": [-0.3952882099072484, 39.4881164866411]}, "properties": {"name": "Centro de Salud Miguel Servet", "type": "centro_salud", "point": true}}, {"type": "Feature", "geometry": {"type": "Polygon", "coordinates": [[[-0.4180924, 39.4932352], [-0.4258946, 39.4954785], [-0.4294327, 39.4980404], [-0.429065, 39.5008469], [-0.4271813, 39.5033775], [-0.4249389, 39.5062308], [-0.4245311, 39.5065344], [-0.4225442, 39.5063315], [-0.4166904, 39.5054863], [-0.415646, 39.5047528], [-0.4114514, 39.5013542], [-0.4134495, 39.4969891], [-0.4180924, 39.4932352]]]}, "properties": {"name": "Centro de Salud Valencia - Benimamet", "type": "centro_salud"}}, {"type": "Feature", "geometry": {"type": "Point", "coordinates": [-0.4212800285373752, 39.49979328788961]}, "properties": {"name": "Centro de Salud Valencia - Benimamet", "type": "centro_salud", "point": true}}, {"type": "Feature", "geometry": {"type": "Polygon", "coordinates": [[[-0.3771328, 39.4825345], [-0.3814109, 39.4826308], [-0.3847851, 39.4829692], [-0.3855497, 39.4830954], [-0.3868433, 39.4838313], [-0.3895903, 39.4855166], [-0.3903792, 39.4862363], [-0.3909848, 39.488279], [-0.3911855, 39.4902126], [-0.3844062, 39.4966], [-0.382863, 39.4969307], [-0.3726686, 39.4944063], [-0.3724121, 39.4942985], [-0.3702703, 39.4907613], [-0.3699726, 39.4893221], [-0.3709062, 39.4869623], [-0.3733419, 39.4849345], [-0.3741122, 39.4843075], [-0.3748617, 39.4837874], [-0.3771328, 39.4825345]]]}, "properties": {"name": "Centro de Salud Just Ramírez", "type": "centro_salud"}}, {"type": "Feature", "geometry": {"type": "Point", "coordinates": [-0.3806150217442672, 39.489062287125066]}, "properties": {"name": "Centro de Salud Just Ramírez", "type": "centro_salud", "point": true}}, {"type": "Feature", "geometry": {"type": "Polygon", "coordinates": [[[-0.4035028, 39.4591395], [-0.4076435, 39.459253], [-0.4102916, 39.4596923], [-0.4134308, 39.4615394], [-0.4156137, 39.4629753], [-0.4172971, 39.464753], [-0.4176973, 39.4652957], [-0.4176995, 39.4658054], [-0.4174897, 39.4674829], [-0.4173614, 39.4684675], [-0.4119065, 39.4724654], [-0.4053799, 39.473235], [-0.4043432, 39.4732749], [-0.4015256, 39.4710256], [-0.3997385, 39.4684976], [-0.3986517, 39.4659095], [-0.3995143, 39.4638556], [-0.4033872, 39.4591817], [-0.4035028, 39.4591395]]]}, "properties": {"name": "Centro de Salud Fontsanta", "type": "centro_salud"}}, {"type": "Feature", "geometry": {"type": "Point", "coordinates": [-0.4077028243910346, 39.46618013217099]}, "properties": {"name": "Centro de Salud Fontsanta", "type": "centro_salud", "point": true}}, {"type": "Feature", "geometry": {"type": "Polygon", "coordinates": [[[-0.3742721, 39.4460403], [-0.3770766, 39.4463263], [-0.3801425, 39.4471336], [-0.3804693, 39.4472637], [-0.3823108, 39.4493558], [-0.3847763, 39.4525645], [-0.3856011, 39.453782], [-0.3856579, 39.4564988], [-0.3856437, 39.456556], [-0.3840388, 39.45836], [-0.378827, 39.4608968], [-0.3784271, 39.4609694], [-0.3763943, 39.4610497], [-0.3710072, 39.4601186], [-0.369315, 39.4596952], [-0.3691802, 39.4595612], [-0.3687133, 39.4588024], [-0.3670843, 39.4551656], [-0.3671429, 39.4547983], [-0.3714291, 39.4469868], [-0.3716756, 39.4466893], [-0.3718598, 39.4466142], [-0.371946, 39.4465791], [-0.3742721, 39.4460403]]]}, "properties": {"name": "Centro de Salud Valencia - Ingeniero J. Benlloch", "type": "centro_salud"}}, {"type": "Feature", "geometry": {"type": "Point", "coordinates": [-0.3767241726961421, 39.453971734775656]}, "properties": {"name": "Centro de Salud Valencia - Ingeniero J. Benlloch", "type": "centro_salud", "point": true}}, {"type": "Feature", "geometry": {"type": "Polygon", "coordinates": [[[-0.3832897, 39.4857289], [-0.3899007, 39.4885401], [-0.3913371, 39.4901822], [-0.3929751, 39.4924893], [-0.3930072, 39.4925411], [-0.393495, 39.4939872], [-0.3930916, 39.4956609], [-0.3891815, 39.4998592], [-0.3845737, 39.5003106], [-0.3774167, 39.4981817], [-0.3728653, 39.4957865], [-0.3725945, 39.4955667], [-0.3724643, 39.4954312], [-0.3724918, 39.4952503], [-0.37271, 39.4945699], [-0.3729109, 39.4942931], [-0.3746381, 39.4919871], [-0.3759399, 39.4903042], [-0.3785261, 39.4870515], [-0.3797893, 39.4860752], [-0.3832897, 39.4857289]]]}, "properties": {"name": "Centro de Salud Valencia - Juan XXIII", "type": "centro_salud"}}, {"type": "Feature", "geometry": {"type": "Point", "coordinates": [-0.3836368012572732, 39.49355638112564]}, "properties": {"name": "Centro de Salud Valencia - Juan XXIII", "type": "centro_salud", "point": true}}, {"type": "Feature", "geometry": {"type": "Polygon", "coordinates": [[[-0.3798359, 39.4855455], [-0.3816952, 39.486016], [-0.3835899, 39.4867471], [-0.3840227, 39.4869505], [-0.3878673, 39.488865], [-0.3881127, 39.4890478], [-0.3889087, 39.4898317], [-0.3902415, 39.49299], [-0.3878133, 39.4955141], [-0.3847903, 39.498262], [-0.3812036, 39.4989421], [-0.3763503, 39.4968147], [-0.373733, 39.4955764], [-0.3726686, 39.4944063], [-0.3725915, 39.492954], [-0.3731948, 39.4917117], [-0.3758315, 39.4877846], [-0.3781023, 39.4861177], [-0.3798359, 39.4855455]]]}, "properties": {"name": "Centro de Salud Valencia - Marco Merenciano", "type": "centro_salud"}}, {"type": "Feature", "geometry": {"type": "Point", "coordinates": [-0.3816400224799013, 39.49164568410172]}, "properties": {"name": "Centro de Salud Valencia - Marco Merenciano", "type": "centro_salud", "point": true}}, {"type": "Feature", "geometry": {"type": "Polygon", "coordinates": [[[-0.3512965, 39.4648993], [-0.3581553, 39.4667331], [-0.3583839, 39.4667993], [-0.36034, 39.4680485], [-0.3605972, 39.4682254], [-0.3611272, 39.4693114], [-0.3619095, 39.4730988], [-0.3619634, 39.4735159], [-0.361819, 39.4737428], [-0.3584709, 39.4768777], [-0.3550322, 39.4784315], [-0.3516021, 39.4796579], [-0.3511709, 39.4796811], [-0.3462402, 39.4783475], [-0.3459149, 39.4782577], [-0.3458311, 39.4782345], [-0.3438297, 39.4756059], [-0.3427326, 39.4738893], [-0.3421007, 39.4727229], [-0.3417326, 39.4718558], [-0.3422268, 39.4687551], [-0.343229, 39.4681224], [-0.3468997, 39.4664775], [-0.3501327, 39.4652706], [-0.3512965, 39.4648993]]]}, "properties": {"name": "Centro de Salud Republica Argentina", "type": "centro_salud"}}, {"type": "Feature", "geometry": {"type": "Point", "coordinates": [-0.3518876933482012, 39.4717350422078]}, "properties": {"name": "Centro de Salud Republica Argentina", "type": "centro_salud", "point": true}}, {"type": "Feature", "geometry": {"type": "Polygon", "coordinates": [[[-0.3880369, 39.4382956], [-0.3902194, 39.438737], [-0.3931539, 39.4395199], [-0.3952083, 39.4401851], [-0.3985373, 39.4417143], [-0.3973364, 39.4439048], [-0.3933115, 39.4488792], [-0.3930562, 39.4491198], [-0.389246, 39.4497774], [-0.385259, 39.4495219], [-0.3851686, 39.4495112], [-0.3819402, 39.4459422], [-0.3816446, 39.4454842], [-0.3816875, 39.4452317], [-0.3817039, 39.4451352], [-0.3817169, 39.445059], [-0.3867153, 39.4385221], [-0.3880369, 39.4382956]]]}, "properties": {"name": "Centro de Salud San Marcelino", "type": "centro_salud"}}, {"type": "Feature", "geometry": {"type": "Point", "coordinates": [-0.3898350910498291, 39.442732898467945]}, "properties": {"name": "Centro de Salud San Marcelino", "type": "centro_salud", "point": true}}, {"type": "Feature", "geometry": {"type": "Polygon", "coordinates": [[[-0.3361968, 39.4609156], [-0.3393736, 39.4612411], [-0.3415279, 39.4625962], [-0.3444314, 39.4664352], [-0.3457682, 39.4690345], [-0.3458281, 39.4696193], [-0.3452674, 39.4714336], [-0.3445008, 39.4726747], [-0.3438168, 39.4729818], [-0.3359224, 39.4764085], [-0.3340684, 39.4767367], [-0.3327743, 39.4764977], [-0.3327366, 39.4764869], [-0.330728, 39.4745559], [-0.3281941, 39.4719136], [-0.324934, 39.467774], [-0.3249379, 39.4674536], [-0.3251824, 39.4668534], [-0.3252451, 39.4667591], [-0.3274024, 39.4653247], [-0.3287694, 39.4644521], [-0.331121, 39.4630127], [-0.3334123, 39.461666], [-0.3358771, 39.4609262], [-0.3361968, 39.4609156]]]}, "properties": {"name": "Centro de Salud Serreria II", "type": "centro_salud"}}, {"type": "Feature", "geometry": {"type": "Point", "coordinates": [-0.3359385303164423, 39.468273297844746]}, "properties": {"name": "Centro de Salud Serreria II", "type": "centro_salud", "point": true}}, {"type": "Feature", "geometry": {"type": "Polygon", "coordinates": [[[-0.3320759, 39.4581268], [-0.3346037, 39.458141], [-0.336205, 39.4586959], [-0.3400836, 39.4604455], [-0.3403792, 39.4606221], [-0.3427301, 39.4661786], [-0.3433557, 39.4681083], [-0.3432864, 39.4684005], [-0.3384933, 39.4710193], [-0.3369947, 39.4717089], [-0.3342638, 39.4728916], [-0.3309572, 39.4739052], [-0.329343, 39.4733671], [-0.3241772, 39.4683689], [-0.3235545, 39.4632939], [-0.3239547, 39.4620925], [-0.3317167, 39.4581312], [-0.3320759, 39.4581268]]]}, "properties": {"name": "Centro de Salud Vicente Brull", "type": "centro_salud"}}, {"type": "Feature", "geometry": {"type": "Point", "coordinates": [-0.3326470164805713, 39.465653726583945]}, "properties": {"name": "Centro de Salud Vicente Brull", "type": "centro_salud", "point": true}}, {"type": "Feature", "geometry": {"type": "Polygon", "coordinates": [[[-0.3608919, 39.4498224], [-0.3637622, 39.4502399], [-0.3678796, 39.4514329], [-0.3681094, 39.4515647], [-0.369101, 39.4522578], [-0.3706281, 39.4552556], [-0.3706986, 39.4557293], [-0.3706119, 39.4559879], [-0.3682443, 39.460044], [-0.3669866, 39.4618184], [-0.3660841, 39.4624487], [-0.364921, 39.4632051], [-0.3608974, 39.4633687], [-0.3566852, 39.4614414], [-0.3538904, 39.459637], [-0.3530665, 39.4581083], [-0.3530396, 39.4574932], [-0.3529909, 39.4560322], [-0.3535074, 39.4540922], [-0.3536091, 39.4539416], [-0.3550758, 39.452321], [-0.357124, 39.4508059], [-0.358906, 39.450018], [-0.3589273, 39.4500089], [-0.3608919, 39.4498224]]]}, "properties": {"name": "Centro de Salud Valencia - Fuente San Luis", "type": "centro_salud"}}, {"type": "Feature", "geometry": {"type": "Point", "coordinates": [-0.360185775396285, 39.45673413203706]}, "properties": {"name": "Centro de Salud Valencia - Fuente San Luis", "type": "centro_salud", "point": true}}, {"type": "Feature", "geometry": {"type": "Polygon", "coordinates": [[[-0.3844469, 39.4535102], [-0.3871525, 39.4549238], [-0.3890438, 39.4565898], [-0.3910309, 39.4610076], [-0.3922495, 39.4640662], [-0.3922482, 39.4641593], [-0.3904857, 39.4669132], [-0.3902368, 39.4671983], [-0.3900454, 39.4672966], [-0.387098, 39.4685928], [-0.384722, 39.4696159], [-0.3795377, 39.4702094], [-0.3786469, 39.4698793], [-0.3786004, 39.469861], [-0.378521, 39.4698297], [-0.3780507, 39.469563], [-0.3730659, 39.4653577], [-0.3729853, 39.465248], [-0.3728965, 39.4651271], [-0.3728689, 39.4650117], [-0.3728485, 39.464861], [-0.3730724, 39.4635333], [-0.3733741, 39.4626149], [-0.3743148, 39.460347], [-0.3814042, 39.4545294], [-0.3844469, 39.4535102]]]}, "properties": {"name": "Centro de Salud Gil y Morte", "type": "centro_salud"}}, {"type": "Feature", "geometry": {"type": "Point", "coordinates": [-0.3819022589009967, 39.461910851835775]}, "properties": {"name": "Centro de Salud Gil y Morte", "type": "centro_salud", "point": true}}, {"type": "Feature", "geometry": {"type": "Polygon", "coordinates": [[[-0.3590424, 39.4551438], [-0.3607707, 39.4551972], [-0.3629648, 39.4553461], [-0.3677209, 39.4568078], [-0.3713851, 39.4586341], [-0.3714919, 39.4587766], [-0.3714998, 39.4588644], [-0.3718865, 39.4646822], [-0.3690655, 39.4670694], [-0.3660613, 39.4687934], [-0.3645081, 39.4691062], [-0.363494, 39.4690126], [-0.3579584, 39.4676142], [-0.3579118, 39.4676003], [-0.35773, 39.4675456], [-0.3539327, 39.4642034], [-0.3519168, 39.4608654], [-0.3521468, 39.4596951], [-0.3522953, 39.4593357], [-0.3536867, 39.4577627], [-0.3549006, 39.4564247], [-0.355839, 39.4556156], [-0.3560284, 39.4555741], [-0.3590424, 39.4551438]]]}, "properties": {"name": "Centro de Salud Luis Oliag", "type": "centro_salud"}}, {"type": "Feature", "geometry": {"type": "Point", "coordinates": [-0.3612712643410324, 39.46140731814206]}, "properties": {"name": "Centro de Salud Luis Oliag", "type": "centro_salud", "point": true}}, {"type": "Feature", "geometry": {"type": "Polygon", "coordinates": [[[-0.3253645, 39.4676108], [-0.3281473, 39.4687198], [-0.3338643, 39.4734754], [-0.3343344, 39.473875], [-0.3359224, 39.4764085], [-0.3357384, 39.4769461], [-0.3326246, 39.4812078], [-0.3322553, 39.4814975], [-0.3284885, 39.48368], [-0.326455, 39.4842172], [-0.3255278, 39.484194], [-0.3244829, 39.483731], [-0.3240466, 39.4834217], [-0.3240002, 39.4831104], [-0.3227118, 39.4716224], [-0.3237756, 39.4694882], [-0.3243374, 39.4683691], [-0.3253645, 39.4676108]]]}, "properties": {"name": "Centro de Salud Malva-Rosa", "type": "centro_salud"}}, {"type": "Feature", "geometry": {"type": "Point", "coordinates": [-0.3253780324647587, 39.47645928436022]}, "properties": {"name": "Centro de Salud Malva-Rosa", "type": "centro_salud", "point": true}}, {"type": "Feature", "geometry": {"type": "Polygon", "coordinates": [[[-0.3359282, 39.442623], [-0.3362401, 39.4426655], [-0.3366443, 39.4429669], [-0.3380413, 39.4452898], [-0.3408282, 39.450802], [-0.3381845, 39.4536574], [-0.3376942, 39.4538796], [-0.331015, 39.4566549], [-0.3281381, 39.4558584], [-0.3276337, 39.4547353], [-0.3292963, 39.4494772], [-0.3307768, 39.4466323], [-0.3314982, 39.4456572], [-0.3326549, 39.4444513], [-0.333514, 39.4437058], [-0.334705, 39.4427127], [-0.3359282, 39.442623]]]}, "properties": {"name": "Centro de Salud de Nazaret", "type": "centro_salud"}}, {"type": "Feature", "geometry": {"type": "Point", "coordinates": [-0.3313581642260666, 39.44922821261979]}, "properties": {"name": "Centro de Salud de Nazaret", "type": "centro_salud", "point": true}}, {"type": "Feature", "geometry": {"type": "Polygon", "coordinates": [[[-0.3900577, 39.4410361], [-0.3902249, 39.4410742], [-0.3969423, 39.4433612], [-0.3971576, 39.4434896], [-0.3973254, 39.4436007], [-0.4001319, 39.4528159], [-0.3999927, 39.453387], [-0.3999405, 39.4534669], [-0.3995699, 39.4538533], [-0.399274, 39.4539713], [-0.3888198, 39.4556138], [-0.3871525, 39.4549238], [-0.3864125, 39.4543806], [-0.3838638, 39.4513838], [-0.380545, 39.4457993], [-0.3805504, 39.4457546], [-0.3817169, 39.445059], [-0.3899565, 39.4410603], [-0.3900577, 39.4410361]]]}, "properties": {"name": "Centro de Salud Plaza Segovia", "type": "centro_salud"}}, {"type": "Feature", "geometry": {"type": "Point", "coordinates": [-0.3914288658286682, 39.44859289823784]}, "properties": {"name": "Centro de Salud Plaza Segovia", "type": "centro_salud", "point": true}}, {"type": "Feature", "geometry": {"type": "Polygon", "coordinates": [[[-0.3715311, 39.4551815], [-0.3790315, 39.4576156], [-0.3793398, 39.4580813], [-0.3809712, 39.4612128], [-0.3816573, 39.4636278], [-0.379752, 39.4680444], [-0.3759625, 39.470418], [-0.3702248, 39.4704684], [-0.3646055, 39.4687796], [-0.362786, 39.4669431], [-0.3625127, 39.4666482], [-0.3620327, 39.4652787], [-0.3616057, 39.4624442], [-0.3617061, 39.4622543], [-0.3654136, 39.4577724], [-0.3671103, 39.4559737], [-0.3715311, 39.4551815]]]}, "properties": {"name": "Centro de Salud Ruzafa", "type": "centro_salud"}}, {"type": "Feature", "geometry": {"type": "Point", "coordinates": [-0.3721530342665327, 39.4640592305419]}, "properties": {"name": "Centro de Salud Ruzafa", "type": "centro_salud", "point": true}}, {"type": "Feature", "geometry": {"type": "Polygon", "coordinates": [[[-0.3453178, 39.4544306], [-0.3491023, 39.454501], [-0.3543502, 39.4599151], [-0.3548779, 39.4607095], [-0.3553701, 39.4630733], [-0.3553082, 39.4631791], [-0.3519644, 39.4653986], [-0.3513358, 39.4656797], [-0.3436914, 39.4687481], [-0.3423544, 39.4687119], [-0.340879, 39.4685306], [-0.3359058, 39.4635158], [-0.3348338, 39.4604999], [-0.3353102, 39.4587559], [-0.3367253, 39.4577401], [-0.3417302, 39.4549147], [-0.3435205, 39.4544904], [-0.344465, 39.454443], [-0.3453178, 39.4544306]]]}, "properties": {"name": "Centro de Salud Trafalgar", "type": "centro_salud"}}, {"type": "Feature", "geometry": {"type": "Point", "coordinates": [-0.345151735134724, 39.46125280897465]}, "properties": {"name": "Centro de Salud Trafalgar", "type": "centro_salud", "point": true}}, {"type": "Feature", "geometry": {"type": "Polygon", "coordinates": [[[-0.3633648, 39.475107], [-0.3659696, 39.4793049], [-0.3660461, 39.4794415], [-0.3662066, 39.4797903], [-0.3679036, 39.4839299], [-0.367993, 39.4849313], [-0.367691, 39.486299], [-0.3671096, 39.487084], [-0.3587656, 39.4901539], [-0.3557881, 39.4904536], [-0.3550493, 39.4903006], [-0.3527066, 39.4886415], [-0.348739, 39.4826175], [-0.3497417, 39.4791648], [-0.3500531, 39.478819], [-0.3531851, 39.4765877], [-0.3541437, 39.4761029], [-0.3545192, 39.476017], [-0.3562376, 39.4756774], [-0.3633648, 39.475107]]]}, "properties": {"name": "Centro de Salud Benimaclet", "type": "centro_salud"}}, {"type": "Feature", "geometry": {"type": "Point", "coordinates": [-0.3583004314403908, 39.48276087968428]}, "properties": {"name": "Centro de Salud Benimaclet", "type": "centro_salud", "point": true}}, {"type": "Feature", "geometry": {"type": "Polygon", "coordinates": [[[-0.4015492, 39.4714987], [-0.4051681, 39.4718207], [-0.4056332, 39.4718667], [-0.4067856, 39.4725363], [-0.4103142, 39.4776265], [-0.4101968, 39.4778259], [-0.4081336, 39.481146], [-0.4065885, 39.4823642], [-0.4047008, 39.483597], [-0.4028718, 39.484482], [-0.402488, 39.4844512], [-0.3991302, 39.4841247], [-0.3981693, 39.4839698], [-0.3924345, 39.4826637], [-0.3916229, 39.4819166], [-0.391585, 39.4818627], [-0.3910875, 39.4789649], [-0.392359, 39.4745016], [-0.3928599, 39.4734337], [-0.3939419, 39.4721116], [-0.4015492, 39.4714987]]]}, "properties": {"name": "Centro de Salud Valencia - Campanar", "type": "centro_salud"}}, {"type": "Feature", "geometry": {"type": "Point", "coordinates": [-0.4005319108214182, 39.47756387084728]}, "properties": {"name": "Centro de Salud Valencia - Campanar", "type": "centro_salud", "point": true}}, {"type": "Feature", "geometry": {"type": "Polygon", "coordinates": [[[-0.3651799, 39.4209056], [-0.3669758, 39.4219766], [-0.370928, 39.4266162], [-0.3715415, 39.4324656], [-0.3713246, 39.4330603], [-0.3679018, 39.4339402], [-0.3666677, 39.4338795], [-0.3658699, 39.4337993], [-0.3644647, 39.4336436], [-0.3633608, 39.433487], [-0.3613348, 39.4330376], [-0.3585964, 39.4323691], [-0.3573993, 39.4318624], [-0.3567366, 39.4307556], [-0.3561102, 39.4280144], [-0.3569704, 39.4267153], [-0.3616595, 39.421751], [-0.3651799, 39.4209056]]]}, "properties": {"name": "Centro de Salud Valencia - Castellar - Oliveral", "type": "centro_salud"}}, {"type": "Feature", "geometry": {"type": "Point", "coordinates": [-0.3636873762115664, 39.42867458574292]}, "properties": {"name": "Centro de Salud Valencia - Castellar - Oliveral", "type": "centro_salud", "point": true}}, {"type": "Feature", "geometry": {"type": "Polygon", "coordinates": [[[-0.3758519, 39.4685685], [-0.3788263, 39.4694324], [-0.3788973, 39.4694621], [-0.3789531, 39.4694855], [-0.3810612, 39.4723915], [-0.38333, 39.4758454], [-0.3823574, 39.4784247], [-0.3809219, 39.4799723], [-0.3770126, 39.4819872], [-0.3748677, 39.4828082], [-0.3700992, 39.4831933], [-0.3700125, 39.4831657], [-0.3699329, 39.4831403], [-0.3698936, 39.4831109], [-0.3660646, 39.479774], [-0.3657209, 39.4794395], [-0.3651462, 39.4788472], [-0.3638738, 39.4772129], [-0.3638004, 39.4771148], [-0.3654506, 39.4707445], [-0.3655317, 39.4706406], [-0.3679864, 39.4694163], [-0.3753404, 39.4685741], [-0.3758519, 39.4685685]]]}, "properties": {"name": "Centro de Salud Valencia - Napoles y Sicilia", "type": "centro_salud"}}, {"type": "Feature", "geometry": {"type": "Point", "coordinates": [-0.3730095019393555, 39.47564498308626]}, "properties": {"name": "Centro de Salud Valencia - Napoles y Sicilia", "type": "centro_salud", "point": true}}, {"type": "Feature", "geometry": {"type": "Polygon", "coordinates": [[[-0.4008812, 39.4623619], [-0.4086429, 39.4696804], [-0.4087818, 39.4711521], [-0.4086321, 39.4717915], [-0.4035588, 39.4765616], [-0.3977644, 39.477447], [-0.3958876, 39.4770772], [-0.3931439, 39.4764104], [-0.3888035, 39.472797], [-0.3888326, 39.4695218], [-0.3896286, 39.4668111], [-0.3907566, 39.4656644], [-0.3934731, 39.463526], [-0.40067, 39.4623696], [-0.4008812, 39.4623619]]]}, "properties": {"name": "Centro de Salud Nou Moles", "type": "centro_salud"}}, {"type": "Feature", "geometry": {"type": "Point", "coordinates": [-0.398565505736063, 39.47040830182208]}, "properties": {"name": "Centro de Salud Nou Moles", "type": "centro_salud", "point": true}}, {"type": "Feature", "geometry": {"type": "Polygon", "coordinates": [[[-0.3763256, 39.4863338], [-0.3777005, 39.4868918], [-0.3790137, 39.4878006], [-0.3804387, 39.4889925], [-0.3819534, 39.4903439], [-0.3827381, 39.4912905], [-0.3834665, 39.4932465], [-0.3823691, 39.4948805], [-0.381078, 39.496636], [-0.3780042, 39.4994644], [-0.3687471, 39.5020049], [-0.3684429, 39.5019437], [-0.3642401, 39.4959732], [-0.36413, 39.4932666], [-0.3641241, 39.49288], [-0.3642986, 39.490592], [-0.3656729, 39.4892986], [-0.3664688, 39.4887079], [-0.3681477, 39.4877129], [-0.3727568, 39.4867736], [-0.3749348, 39.4863672], [-0.3758895, 39.4863344], [-0.3763256, 39.4863338]]]}, "properties": {"name": "Centro de Salud Salvador Allende", "type": "centro_salud"}}, {"type": "Feature", "geometry": {"type": "Point", "coordinates": [-0.3728127269361776, 39.494487790911265]}, "properties": {"name": "Centro de Salud Salvador Allende", "type": "centro_salud", "point": true}}, {"type": "Feature", "geometry": {"type": "Polygon", "coordinates": [[[-0.3549861, 39.4618682], [-0.3550621, 39.4619298], [-0.36025, 39.4680406], [-0.3611272, 39.4693114], [-0.3611205, 39.4733311], [-0.3610748, 39.4734294], [-0.3610341, 39.4735169], [-0.3562962, 39.4755555], [-0.3556489, 39.4757567], [-0.3525597, 39.4766173], [-0.346997, 39.4766227], [-0.3468497, 39.4765884], [-0.3465742, 39.4763789], [-0.3445926, 39.4744335], [-0.3434259, 39.4728694], [-0.3413194, 39.4684913], [-0.3413823, 39.4683557], [-0.3417653, 39.4676452], [-0.3431124, 39.4665507], [-0.3443273, 39.4657114], [-0.3460765, 39.4648488], [-0.3476803, 39.4641284], [-0.3496906, 39.4633457], [-0.3511454, 39.4627825], [-0.3523105, 39.4624179], [-0.3527027, 39.4623247], [-0.3549861, 39.4618682]]]}, "properties": {"name": "Centro de Salud Salvador Pau", "type": "centro_salud"}}, {"type": "Feature", "geometry": {"type": "Point", "coordinates": [-0.3515984658724555, 39.470105973039175]}, "properties": {"name": "Centro de Salud Salvador Pau", "type": "centro_salud", "point": true}}, {"type": "Feature", "geometry": {"type": "Polygon", "coordinates": [[[-0.4026083, 39.4492421], [-0.4031357, 39.4493925], [-0.4079699, 39.4519296], [-0.4084848, 39.4530772], [-0.4081685, 39.4551822], [-0.4068888, 39.458094], [-0.4068208, 39.4581186], [-0.406043, 39.4583997], [-0.4059189, 39.45844], [-0.4048277, 39.4587339], [-0.4021192, 39.4585318], [-0.4014818, 39.4584775], [-0.3970009, 39.457678], [-0.395305, 39.4572517], [-0.3944394, 39.4563182], [-0.3944007, 39.4545098], [-0.3945649, 39.4499455], [-0.3946473, 39.4493686], [-0.4026083, 39.4492421]]]}, "properties": {"name": "Centro de Salud San Isidro", "type": "centro_salud"}}, {"type": "Feature", "geometry": {"type": "Point", "coordinates": [-0.4027594535539079, 39.45118534202782]}, "properties": {"name": "Centro de Salud San Isidro", "type": "centro_salud", "point": true}}, {"type": "Feature", "geometry": {"type": "Polygon", "coordinates": [[[-0.3375421, 39.4600454], [-0.339903, 39.4609221], [-0.3429677, 39.4654635], [-0.3447999, 39.4687621], [-0.3449978, 39.4695445], [-0.3450596, 39.4707248], [-0.3434485, 39.4728207], [-0.3357162, 39.4762674], [-0.335346, 39.4763965], [-0.3340402, 39.4764627], [-0.3327743, 39.4764977], [-0.3327366, 39.4764869], [-0.330069, 39.4743036], [-0.3246811, 39.4683694], [-0.3247957, 39.4665981], [-0.3272129, 39.4645858], [-0.333887, 39.4610133], [-0.3345954, 39.4606562], [-0.3375421, 39.4600454]]]}, "properties": {"name": "Centro de Salud Serreria I", "type": "centro_salud"}}, {"type": "Feature", "geometry": {"type": "Point", "coordinates": [-0.33523492144712, 39.46828419202946]}, "properties": {"name": "Centro de Salud Serreria I", "type": "centro_salud", "point": true}}, {"type": "Feature", "geometry": {"type": "Polygon", "coordinates": [[[-0.3696268, 39.4734586], [-0.370395, 39.4735196], [-0.3744524, 39.4739812], [-0.3746926, 39.4740376], [-0.3749638, 39.4741051], [-0.3752812, 39.4741842], [-0.3763951, 39.474793], [-0.3766559, 39.4750816], [-0.3779877, 39.4766474], [-0.3790049, 39.4787534], [-0.3791013, 39.479499], [-0.3793968, 39.4830609], [-0.3728066, 39.4868879], [-0.3687868, 39.4881899], [-0.3683869, 39.4881768], [-0.3672213, 39.4881184], [-0.3652411, 39.4878033], [-0.3648134, 39.4874745], [-0.3634431, 39.4854522], [-0.3622692, 39.4832457], [-0.3616378, 39.4820105], [-0.3610581, 39.4795189], [-0.3610676, 39.4778706], [-0.3630318, 39.4754787], [-0.3648718, 39.4738634], [-0.3649929, 39.4738084], [-0.3696268, 39.4734586]]]}, "properties": {"name": "Centro de Salud Trinitat", "type": "centro_salud"}}, {"type": "Feature", "geometry": {"type": "Point", "coordinates": [-0.3699754354771659, 39.48055280410273]}, "properties": {"name": "Centro de Salud Trinitat", "type": "centro_salud", "point": true}}]}