{"type": "FeatureCollection", "features": [{"type": "Feature", "geometry": {"type": "Polygon", "coordinates": [[[-0.3584937, 39.49255], [-0.3599315, 39.4930741], [-0.3608893, 39.4951451], [-0.3622579, 39.5042578], [-0.3559282, 39.5058836], [-0.3523081, 39.5048131], [-0.3484336, 39.5036019], [-0.3466747, 39.5005396], [-0.3457803, 39.4975284], [-0.3484997, 39.4939968], [-0.3551513, 39.4930009], [-0.3584937, 39.49255]]]}, "properties": {"name": "Poliesportiu Municipal d'Alboraia", "type": "polideportivo"}}, {"type": "Feature", "geometry": {"type": "Point", "coordinates": [-0.3553702, 39.4994512]}, "properties": {"name": "Poliesportiu Municipal d'Alboraia", "type": "polideportivo", "point": true}}, {"type": "Feature", "geometry": {"type": "Polygon", "coordinates": [[[-0.3595916, 39.4719172], [-0.3616572, 39.4722487], [-0.3647631, 39.4737284], [-0.3670099, 39.4766422], [-0.3679894, 39.479204], [-0.368043, 39.479354], [-0.3665444, 39.4826401], [-0.3665072, 39.4827157], [-0.3638774, 39.4845365], [-0.3622955, 39.4848519], [-0.35916, 39.4850494], [-0.3586103, 39.4850665], [-0.3539401, 39.4850571], [-0.3512022, 39.4823835], [-0.3504188, 39.4811822], [-0.350174, 39.4787588], [-0.3499136, 39.4761007], [-0.3505167, 39.474825], [-0.356092, 39.4729163], [-0.3595916, 39.4719172]]]}, "properties": {"name": "Pavelló Poliesportiu", "type": "polideportivo"}}, {"type": "Feature", "geometry": {"type": "Point", "coordinates": [-0.3585654189222359, 39.47948597036082]}, "properties": {"name": "Pavelló Poliesportiu", "type": "polideportivo", "point": true}}, {"type": "Feature", "geometry": {"type": "Polygon", "coordinates": [[[-0.3575402, 39.4729325], [-0.3577021, 39.4729767], [-0.358006, 39.4730654], [-0.3594487, 39.4746277], [-0.3616133, 39.4784684], [-0.3621592, 39.4803623], [-0.3621543, 39.4832652], [-0.3619608, 39.4846271], [-0.3619095, 39.4847367], [-0.3587777, 39.4862261], [-0.3537804, 39.4883105], [-0.3532497, 39.4883666], [-0.349184, 39.4864371], [-0.3458188, 39.484726], [-0.3446773, 39.4817576], [-0.3438623, 39.4793708], [-0.3438394, 39.4792872], [-0.3439176, 39.4791198], [-0.3497305, 39.4749081], [-0.3504117, 39.474479], [-0.3524868, 39.4737293], [-0.3550842, 39.4731532], [-0.3575402, 39.4729325]]]}, "properties": {"name": "Poliesportiu Benimaclet", "type": "polideportivo"}}, {"type": "Feature", "geometry": {"type": "Point", "coordinates": [-0.3543678220392035, 39.48082059438379]}, "properties": {"name": "Poliesportiu Benimaclet", "type": "polideportivo", "point": true}}, {"type": "Feature", "geometry": {"type": "Polygon", "coordinates": [[[-0.3392994, 39.4672532], [-0.3393978, 39.467282], [-0.3395162, 39.4673285], [-0.3413823, 39.4683557], [-0.3445008, 39.4726747], [-0.3454135, 39.4745874], [-0.345461, 39.4746876], [-0.3455518, 39.4762054], [-0.3442176, 39.4792041], [-0.3438623, 39.4793708], [-0.3412184, 39.4805583], [-0.3382521, 39.4812654], [-0.3365711, 39.4816072], [-0.3331492, 39.4813542], [-0.3326246, 39.4812078], [-0.3310773, 39.4804026], [-0.3286168, 39.4777174], [-0.3277435, 39.4765238], [-0.3268046, 39.4747738], [-0.3276889, 39.4718714], [-0.3291776, 39.4707403], [-0.3305691, 39.4699825], [-0.3343803, 39.4682631], [-0.335045, 39.4680447], [-0.3392994, 39.4672532]]]}, "properties": {"name": "Poliesportiu Verge del Carme - Beteró", "type": "polideportivo"}}, {"type": "Feature", "geometry": {"type": "Point", "coordinates": [-0.3370430723832363, 39.47526000381621]}, "properties": {"name": "Poliesportiu Verge del Carme - Beteró", "type": "polideportivo", "point": true}}, {"type": "Feature", "geometry": {"type": "Polygon", "coordinates": [[[-0.3590169, 39.4494885], [-0.3606794, 39.4495441], [-0.3636156, 39.4501863], [-0.3639182, 39.4502574], [-0.3675656, 39.4514715], [-0.3677417, 39.4517213], [-0.3678838, 39.4519235], [-0.3678758, 39.4525403], [-0.3677086, 39.4550354], [-0.3664631, 39.4609942], [-0.3660905, 39.4622005], [-0.364972, 39.4629152], [-0.3636969, 39.4631969], [-0.3606442, 39.4636987], [-0.3532021, 39.4613704], [-0.3528227, 39.4611554], [-0.3520385, 39.4605355], [-0.3505555, 39.457449], [-0.3505261, 39.4572386], [-0.3501328, 39.4541775], [-0.3519986, 39.4517559], [-0.3590169, 39.4494885]]]}, "properties": {"name": "Poliesportiu Montolivet", "type": "polideportivo"}}, {"type": "Feature", "geometry": {"type": "Point", "coordinates": [-0.3595016626792855, 39.45587311735084]}, "properties": {"name": "Poliesportiu Montolivet", "type": "polideportivo", "point": true}}, {"type": "Feature", "geometry": {"type": "Polygon", "coordinates": [[[-0.3371557, 39.4581124], [-0.3405254, 39.4585432], [-0.3424004, 39.4593742], [-0.3449465, 39.4663072], [-0.3457682, 39.4690345], [-0.3449978, 39.4695445], [-0.3409051, 39.4719177], [-0.3340716, 39.474793], [-0.3336008, 39.4748472], [-0.3322084, 39.4740879], [-0.3251824, 39.4668534], [-0.325151, 39.4666529], [-0.3264046, 39.4630394], [-0.332942, 39.459233], [-0.3371557, 39.4581124]]]}, "properties": {"name": "Poliesportiu Municipal Cabanyal - Canyamelar", "type": "polideportivo"}}, {"type": "Feature", "geometry": {"type": "Point", "coordinates": [-0.3347330116697806, 39.46648357409304]}, "properties": {"name": "Poliesportiu Municipal Cabanyal - Canyamelar", "type": "polideportivo", "point": true}}, {"type": "Feature", "geometry": {"type": "Polygon", "coordinates": [[[-0.3326015, 39.4604718], [-0.3388183, 39.4679965], [-0.3392839, 39.4686893], [-0.3391339, 39.4689921], [-0.3379152, 39.4705732], [-0.3378164, 39.4707006], [-0.3374605, 39.471101], [-0.3372056, 39.471279], [-0.3342232, 39.4731024], [-0.3299225, 39.4756499], [-0.3277435, 39.4765238], [-0.3249607, 39.4745434], [-0.3227118, 39.4716224], [-0.3219435, 39.4678516], [-0.3219977, 39.4642615], [-0.3228609, 39.463375], [-0.3241109, 39.4621784], [-0.3243522, 39.4620899], [-0.3326015, 39.4604718]]]}, "properties": {"name": "Poliesportiu Doctor Lluch", "type": "polideportivo"}}, {"type": "Feature", "geometry": {"type": "Point", "coordinates": [-0.3276587241004157, 39.46812090438491]}, "properties": {"name": "Poliesportiu Doctor Lluch", "type": "polideportivo", "point": true}}, {"type": "Feature", "geometry": {"type": "Polygon", "coordinates": [[[-0.3907817, 39.4391713], [-0.3978936, 39.4424664], [-0.398304, 39.4426787], [-0.399197, 39.4434376], [-0.3996586, 39.4438815], [-0.3959354, 39.4497322], [-0.3947387, 39.4506181], [-0.3946698, 39.4506294], [-0.3921407, 39.4506854], [-0.3897588, 39.449677], [-0.3877122, 39.4480752], [-0.3868436, 39.4463664], [-0.3862306, 39.4451495], [-0.3867841, 39.4417322], [-0.3875886, 39.4401591], [-0.3887889, 39.4397185], [-0.3907817, 39.4391713]]]}, "properties": {"name": "Poliesportiu La Rambleta", "type": "polideportivo"}}, {"type": "Feature", "geometry": {"type": "Point", "coordinates": [-0.3953133419692906, 39.443658599871114]}, "properties": {"name": "Poliesportiu La Rambleta", "type": "polideportivo", "point": true}}, {"type": "Feature", "geometry": {"type": "Polygon", "coordinates": [[[-0.3474104, 39.4540703], [-0.3489539, 39.4542768], [-0.3502708, 39.4560499], [-0.3512105, 39.4585853], [-0.3510477, 39.4591518], [-0.3509156, 39.4595862], [-0.350511, 39.4606572], [-0.3495071, 39.4614817], [-0.3484562, 39.4619015], [-0.3439716, 39.4634442], [-0.339296, 39.4649978], [-0.3360411, 39.4644091], [-0.3357272, 39.4642002], [-0.3324218, 39.4601359], [-0.3321974, 39.4596965], [-0.3323122, 39.4585583], [-0.3420948, 39.454308], [-0.342561, 39.454183], [-0.3445073, 39.4541152], [-0.3474104, 39.4540703]]]}, "properties": {"name": "Poliesportiu Juan Antonio Samaranch", "type": "polideportivo"}}, {"type": "Feature", "geometry": {"type": "Point", "coordinates": [-0.3420322088806841, 39.45707053934557]}, "properties": {"name": "Poliesportiu Juan Antonio Samaranch", "type": "polideportivo", "point": true}}, {"type": "Feature", "geometry": {"type": "Polygon", "coordinates": [[[-0.4032807, 39.4849706], [-0.4055191, 39.4852805], [-0.4056536, 39.4853767], [-0.4134753, 39.4958463], [-0.4135781, 39.4973909], [-0.4087955, 39.4978976], [-0.4049522, 39.4982593], [-0.4019164, 39.4984504], [-0.3996193, 39.4969966], [-0.398328, 39.4960018], [-0.3982869, 39.4959643], [-0.3992322, 39.489809], [-0.3993015, 39.4894882], [-0.4022023, 39.4857474], [-0.4031072, 39.4850372], [-0.4032807, 39.4849706]]]}, "properties": {"name": "Poliesportiu Municipal de Beniferri", "type": "polideportivo"}}, {"type": "Feature", "geometry": {"type": "Point", "coordinates": [-0.4079289232627946, 39.493175856652094]}, "properties": {"name": "Poliesportiu Municipal de Beniferri", "type": "polideportivo", "point": true}}, {"type": "Feature", "geometry": {"type": "Polygon", "coordinates": [[[-0.3952925, 39.4680318], [-0.3987579, 39.4687998], [-0.4053899, 39.472609], [-0.4059559, 39.473141], [-0.4059436, 39.4736867], [-0.4035384, 39.4786434], [-0.4016211, 39.4813162], [-0.4010945, 39.4820496], [-0.4009767, 39.4820982], [-0.3944949, 39.4828488], [-0.3935634, 39.4829271], [-0.3923631, 39.4830192], [-0.3904927, 39.4823147], [-0.3856792, 39.4801601], [-0.3856014, 39.4800801], [-0.3849682, 39.4793573], [-0.3849137, 39.4792809], [-0.385854, 39.4740267], [-0.3886812, 39.4698679], [-0.3908307, 39.4681694], [-0.3952925, 39.4680318]]]}, "properties": {"name": "Complex Esportiu-Cultural Petxina", "type": "polideportivo"}}, {"type": "Feature", "geometry": {"type": "Point", "coordinates": [-0.3943725035435234, 39.47527630941621]}, "properties": {"name": "Complex Esportiu-Cultural Petxina", "type": "polideportivo", "point": true}}, {"type": "Feature", "geometry": {"type": "Polygon", "coordinates": [[[-0.334705, 39.4427127], [-0.3359102, 39.4428531], [-0.3361584, 39.4428914], [-0.3365624, 39.4432832], [-0.3380413, 39.4452898], [-0.3412438, 39.449789], [-0.3413109, 39.4510867], [-0.3412597, 39.4514062], [-0.3402328, 39.4529542], [-0.3395899, 39.4536462], [-0.3320759, 39.4581268], [-0.3297354, 39.4569143], [-0.3270712, 39.4553091], [-0.3270711, 39.4548999], [-0.3277777, 39.4498927], [-0.3314982, 39.4456572], [-0.3326549, 39.4444513], [-0.333514, 39.4437058], [-0.334705, 39.4427127]]]}, "properties": {"name": "Poliesportiu de Natzaret", "type": "polideportivo"}}, {"type": "Feature", "geometry": {"type": "Point", "coordinates": [-0.3313206136314998, 39.45076528724947]}, "properties": {"name": "Poliesportiu de Natzaret", "type": "polideportivo", "point": true}}, {"type": "Feature", "geometry": {"type": "Polygon", "coordinates": [[[-0.3733379, 39.4439407], [-0.3753974, 39.4440892], [-0.3781504, 39.44433], [-0.3783298, 39.4443474], [-0.3804454, 39.4454955], [-0.3814786, 39.4468397], [-0.3823108, 39.4493558], [-0.3827325, 39.4548152], [-0.3827129, 39.4548884], [-0.3794852, 39.4580296], [-0.3766857, 39.4585318], [-0.3746524, 39.4585831], [-0.3716261, 39.4581903], [-0.3712937, 39.4581443], [-0.3656063, 39.4557418], [-0.3654234, 39.4555736], [-0.365903, 39.4530534], [-0.3670779, 39.449444], [-0.3673959, 39.4485556], [-0.3684883, 39.4455284], [-0.3693192, 39.4449937], [-0.3733379, 39.4439407]]]}, "properties": {"name": "Poliesportiu Malilla", "type": "polideportivo"}}, {"type": "Feature", "geometry": {"type": "Point", "coordinates": [-0.3743373761515082, 39.451374035890915]}, "properties": {"name": "Poliesportiu Malilla", "type": "polideportivo", "point": true}}, {"type": "Feature", "geometry": {"type": "Polygon", "coordinates": [[[-0.3783662, 39.485515], [-0.3785425, 39.4855281], [-0.3838163, 39.4876617], [-0.3846178, 39.4880654], [-0.3880921, 39.4898476], [-0.3893592, 39.4917885], [-0.3902432, 39.4936331], [-0.3900903, 39.4938759], [-0.3885919, 39.4958885], [-0.387013, 39.4973458], [-0.3826319, 39.5006509], [-0.3805309, 39.5016743], [-0.3715943, 39.497712], [-0.3708296, 39.4968648], [-0.3707633, 39.4967786], [-0.3702658, 39.4959688], [-0.3701995, 39.4944301], [-0.3707186, 39.4923054], [-0.3714263, 39.4901489], [-0.3749682, 39.4870552], [-0.3781774, 39.4855767], [-0.3783662, 39.485515]]]}, "properties": {"name": "Complex Esportiu Torrefiel", "type": "polideportivo"}}, {"type": "Feature", "geometry": {"type": "Point", "coordinates": [-0.3794406171496077, 39.49357281449375]}, "properties": {"name": "Complex Esportiu Torrefiel", "type": "polideportivo", "point": true}}, {"type": "Feature", "geometry": {"type": "Polygon", "coordinates": [[[-0.3523928, 39.4587259], [-0.3564802, 39.4588999], [-0.3583854, 39.459486], [-0.362114, 39.4609921], [-0.3622806, 39.4611386], [-0.3641633, 39.4629175], [-0.3641767, 39.4630028], [-0.3642555, 39.4687232], [-0.3642362, 39.4691693], [-0.3629044, 39.4703828], [-0.362446, 39.470659], [-0.3618976, 39.4709117], [-0.3560533, 39.4719199], [-0.3511596, 39.4704708], [-0.3497026, 39.4691448], [-0.3480669, 39.466825], [-0.3461798, 39.4639793], [-0.3476788, 39.4606838], [-0.350974, 39.4591089], [-0.3523425, 39.458734], [-0.3523928, 39.4587259]]]}, "properties": {"name": "Poliesportiu Astúries", "type": "polideportivo"}}, {"type": "Feature", "geometry": {"type": "Point", "coordinates": [-0.3564066374933096, 39.464741054045895]}, "properties": {"name": "Poliesportiu Astúries", "type": "polideportivo", "point": true}}, {"type": "Feature", "geometry": {"type": "Polygon", "coordinates": [[[-0.3802476, 39.4815101], [-0.3846926, 39.4822989], [-0.3863929, 39.4828711], [-0.3876244, 39.4834901], [-0.389945, 39.4852921], [-0.3909013, 39.4860789], [-0.3912063, 39.4863707], [-0.3912173, 39.4863823], [-0.3918477, 39.4878523], [-0.3914546, 39.4903783], [-0.3911908, 39.4912387], [-0.3866742, 39.4933052], [-0.3864723, 39.4933523], [-0.3835838, 39.4939808], [-0.3818299, 39.4941176], [-0.381092, 39.4940024], [-0.374021, 39.4925176], [-0.373722, 39.492188], [-0.3724161, 39.4901995], [-0.3715136, 39.4887912], [-0.3709062, 39.4869623], [-0.3722183, 39.4850978], [-0.3760635, 39.4822853], [-0.3802476, 39.4815101]]]}, "properties": {"name": "Poliesportiu de Marxalenes-Saïdia", "type": "polideportivo"}}, {"type": "Feature", "geometry": {"type": "Point", "coordinates": [-0.3812589200570046, 39.48825229071064]}, "properties": {"name": "Poliesportiu de Marxalenes-Saïdia", "type": "polideportivo", "point": true}}, {"type": "Feature", "geometry": {"type": "Polygon", "coordinates": [[[-0.3717, 39.486257], [-0.3726002, 39.4872448], [-0.3732407, 39.4882732], [-0.3732896, 39.488437], [-0.3746844, 39.4951067], [-0.3740085, 39.4961096], [-0.3727061, 39.4974521], [-0.3715264, 39.4982857], [-0.3703721, 39.4985892], [-0.3647356, 39.4977249], [-0.3579363, 39.4949425], [-0.3578401, 39.4947702], [-0.3575591, 39.4899986], [-0.3585997, 39.4888593], [-0.3590864, 39.488335], [-0.3626743, 39.4869433], [-0.3666389, 39.4865777], [-0.368259, 39.4864558], [-0.3717, 39.486257]]]}, "properties": {"name": "Complex Esportiu Orriols", "type": "polideportivo"}}, {"type": "Feature", "geometry": {"type": "Point", "coordinates": [-0.3662879218290216, 39.49328721228128]}, "properties": {"name": "Complex Esportiu Orriols", "type": "polideportivo", "point": true}}, {"type": "Feature", "geometry": {"type": "Polygon", "coordinates": [[[-0.3880803, 39.4607999], [-0.3910309, 39.4610076], [-0.3929988, 39.4624061], [-0.3945481, 39.4639706], [-0.3956352, 39.465331], [-0.396737, 39.4677526], [-0.3968078, 39.4679463], [-0.3968499, 39.4681306], [-0.3966552, 39.4684672], [-0.3928836, 39.4730299], [-0.3907425, 39.4733131], [-0.384956, 39.4727725], [-0.3826658, 39.4717524], [-0.3820157, 39.4714621], [-0.3814815, 39.4709751], [-0.379529, 39.4664396], [-0.3823327, 39.4622599], [-0.3825598, 39.4619344], [-0.3858267, 39.4609435], [-0.3880803, 39.4607999]]]}, "properties": {"name": "Complex Esportiu-Cultural d'Abastos", "type": "polideportivo"}}, {"type": "Feature", "geometry": {"type": "Point", "coordinates": [-0.387982970852336, 39.467649895439585]}, "properties": {"name": "Complex Esportiu-Cultural d'Abastos", "type": "polideportivo", "point": true}}]}