{"type": "FeatureCollection", "features": [{"type": "Feature", "geometry": {"type": "Polygon", "coordinates": [[[-0.34878177063929244, 39.44389279272166], [-0.3543646092615854, 39.44225514717015], [-0.355369195277959, 39.43742489017818], [-0.3507914873537842, 39.43423259900934], [-0.3452093849404469, 39.43587029133733], [-0.34420425430614976, 39.44070022805179], [-0.34878177063929244, 39.44389279272166]]]}, "properties": {"hex_id": 0, "h3": "8839540f6dfffff", "population": 4644.0, "centroid_lon": -0.34978684496961243, "centroid_lat": 39.43906285172726, "need_sports": true, "need_health": true, "weight_sports": 4644.0, "weight_health": 4644.0}}, {"type": "Feature", "geometry": {"type": "Polygon", "coordinates": [[[-0.33203367115885485, 39.448803544060546], [-0.3376163014832185, 39.44716699115988], [-0.3386218878756871, 39.44233735071804], [-0.334045388351659, 39.439144583582795], [-0.3284634943855271, 39.44078118351421], [-0.32745736364904754, 39.445610503544245], [-0.33203367115885485, 39.448803544060546]]]}, "properties": {"hex_id": 1, "h3": "8839540f6bfffff", "population": 6394.0, "centroid_lon": -0.3330397458499274, "centroid_lat": 39.44397421973988, "need_sports": true, "need_health": true, "weight_sports": 6394.0, "weight_health": 6394.0}}, {"type": "Feature", "geometry": {"type": "Polygon", "coordinates": [[[-0.3421936260350651, 39.45035982925915], [-0.3477767288245006, 39.448722753481285], [-0.34878177063929244, 39.44389279272166], [-0.34420425430614976, 39.44070022805179], [-0.3386218878756871, 39.44233735071804], [-0.3376163014832185, 39.44716699115988], [-0.3421936260350651, 39.45035982925915]]]}, "properties": {"hex_id": 2, "h3": "8839540f69fffff", "population": 4478.0, "centroid_lon": -0.34319915621624425, "centroid_lat": 39.445530184565655, "need_sports": true, "need_health": true, "weight_sports": 4478.0, "weight_health": 4478.0}}, {"type": "Feature", "geometry": {"type": "Polygon", "coordinates": [[[-0.3350510633702711, 39.434314967239914], [-0.340632693592411, 39.432677797654804], [-0.3416379129600808, 39.42784788517458], [-0.3370620463604389, 39.42465546269895], [-0.33148115219597796, 39.42629267923332], [-0.330475388637285, 39.431122271288196], [-0.3350510633702711, 39.434314967239914]]]}, "properties": {"hex_id": 3, "h3": "8839540f67fffff", "population": 3103.0, "centroid_lon": -0.3360567708639911, "centroid_lat": 39.4294853707988, "need_sports": true, "need_health": true, "weight_sports": 3103.0, "weight_health": 3103.0}}, {"type": "Feature", "geometry": {"type": "Polygon", "coordinates": [[[-0.3452093849404469, 39.43587029133733], [-0.3507914873537842, 39.43423259900934], [-0.3517961622968987, 39.429402366197785], [-0.3472192793150426, 39.42621014603966], [-0.3416379129600808, 39.42784788517458], [-0.340632693592411, 39.432677797654804], [-0.3452093849404469, 39.43587029133733]]]}, "properties": {"hex_id": 4, "h3": "8839540f65fffff", "population": 3187.0, "centroid_lon": -0.3462145480773574, "centroid_lat": 39.43104037450984, "need_sports": true, "need_health": true, "weight_sports": 3187.0, "weight_health": 3187.0}}, {"type": "Feature", "geometry": {"type": "Polygon", "coordinates": [[[-0.3284634943855271, 39.44078118351421], [-0.334045388351659, 39.439144583582795], [-0.3350510633702711, 39.434314967239914], [-0.330475388637285, 39.431122271288196], [-0.3248942308786807, 39.432758918280825], [-0.3238880117093686, 39.43758821415811], [-0.3284634943855271, 39.44078118351421]]]}, "properties": {"hex_id": 5, "h3": "8839540f63fffff", "population": 3364.0, "centroid_lon": -0.3294696575825522, "centroid_lat": 39.435951883279, "need_sports": true, "need_health": true, "weight_sports": 3364.0, "weight_health": 3364.0}}, {"type": "Feature", "geometry": {"type": "Polygon", "coordinates": [[[-0.3386218878756871, 39.44233735071804], [-0.34420425430614976, 39.44070022805179], [-0.3452093849404469, 39.43587029133733], [-0.340632693592411, 39.432677797654804], [-0.3350510633702711, 39.434314967239914], [-0.334045388351659, 39.439144583582795], [-0.3386218878756871, 39.44233735071804]]]}, "properties": {"hex_id": 6, "h3": "8839540f61fffff", "population": 2208.0, "centroid_lon": -0.3396275067561908, "centroid_lat": 39.43750773005621, "need_sports": true, "need_health": true, "weight_sports": 2208.0, "weight_health": 2208.0}}, {"type": "Feature", "geometry": {"type": "Polygon", "coordinates": [[[-0.31226470365938, 39.468196925067616], [-0.3178481249253574, 39.46656208208574], [-0.318855078994248, 39.4617333315143], [-0.3142791560837665, 39.45853974445114], [-0.3086964716256465, 39.460174634799436], [-0.3076889733340639, 39.46500306483864], [-0.31226470365938, 39.468196925067616]]]}, "properties": {"hex_id": 7, "h3": "8839540f5dfffff", "population": 93.0, "centroid_lon": -0.31327214618385346, "centroid_lat": 39.46336849082283, "need_sports": true, "need_health": true, "weight_sports": 93.0, "weight_health": 93.0}}, {"type": "Feature", "geometry": {"type": "Polygon", "coordinates": [[[-0.3086964716256465, 39.460174634799436], [-0.3142791560837665, 39.45853974445114], [-0.31528619845676, 39.453711017572985], [-0.31071110046489897, 39.45051750162331], [-0.3051291526636999, 39.452152439368504], [-0.30412156626136366, 39.45698084566064], [-0.3086964716256465, 39.460174634799436]]]}, "properties": {"hex_id": 8, "h3": "8839540f55fffff", "population": 336.0, "centroid_lon": -0.309704002333939, "centroid_lat": 39.45534622423443, "need_sports": true, "need_health": true, "weight_sports": 336.0, "weight_health": 336.0}}, {"type": "Feature", "geometry": {"type": "Polygon", "coordinates": [[[-0.3391767657963167, 39.46484854945775], [-0.344760869289438, 39.46321209052713], [-0.3457662781713014, 39.458382402454575], [-0.3411881283548154, 39.45518949361089], [-0.3356047615214552, 39.45682599951125], [-0.33459880790872043, 39.46165536727967], [-0.3391767657963167, 39.46484854945775]]]}, "properties": {"hex_id": 9, "h3": "8839540f4dfffff", "population": 10346.0, "centroid_lon": -0.34018266321728496, "centroid_lat": 39.460019177533304, "need_sports": false, "need_health": false, "weight_sports": 0.0, "weight_health": 0.0}}, {"type": "Feature", "geometry": {"type": "Polygon", "coordinates": [[[-0.3224248729914011, 39.469755740042935], [-0.3280087675425245, 39.468120374208596], [-0.3290151771547775, 39.463291303198865], [-0.3244382367364518, 39.46009791845591], [-0.318855078994248, 39.4617333315143], [-0.3178481249253574, 39.46656208208574], [-0.3224248729914011, 39.469755740042935]]]}, "properties": {"hex_id": 10, "h3": "8839540f4bfffff", "population": 5998.0, "centroid_lon": -0.3234317711272514, "centroid_lat": 39.46492698530487, "need_sports": false, "need_health": true, "weight_sports": 0.0, "weight_health": 5998.0}}, {"type": "Feature", "geometry": {"type": "Polygon", "coordinates": [[[-0.3325865333108366, 39.47131382964933], [-0.33817090087461515, 39.4696779408118], [-0.3391767657963167, 39.46484854945775], [-0.33459880790872043, 39.46165536727967], [-0.3290151771547775, 39.463291303198865], [-0.3280087675425245, 39.468120374208596], [-0.3325865333108366, 39.47131382964933]]]}, "properties": {"hex_id": 11, "h3": "8839540f49fffff", "population": 15079.0, "centroid_lon": -0.3335928868240957, "centroid_lat": 39.46648475451192, "need_sports": false, "need_health": false, "weight_sports": 0.0, "weight_health": 0.0}}, {"type": "Feature", "geometry": {"type": "Polygon", "coordinates": [[[-0.3254447348462394, 39.45526887108565], [-0.33102762894120047, 39.45363288805431], [-0.33203367115885485, 39.448803544060546], [-0.32745736364904754, 39.445610503544245], [-0.32187520606222425, 39.44724653371827], [-0.3208686195409392, 39.45207555726004], [-0.3254447348462394, 39.45526887108565]]]}, "properties": {"hex_id": 12, "h3": "8839540f47fffff", "population": 2624.0, "centroid_lon": -0.326451265414855, "centroid_lat": 39.45043984328158, "need_sports": true, "need_health": true, "weight_sports": 2624.0, "weight_health": 2624.0}}, {"type": "Feature", "geometry": {"type": "Polygon", "coordinates": [[[-0.3356047615214552, 39.45682599951125], [-0.3411881283548154, 39.45518949361089], [-0.3421936260350651, 39.45035982925915], [-0.3376163014832185, 39.44716699115988], [-0.33203367115885485, 39.448803544060546], [-0.33102762894120047, 39.45363288805431], [-0.3356047615214552, 39.45682599951125]]]}, "properties": {"hex_id": 13, "h3": "8839540f45fffff", "population": 5186.0, "centroid_lon": -0.33661074762053955, "centroid_lat": 39.45199665129419, "need_sports": false, "need_health": false, "weight_sports": 0.0, "weight_health": 0.0}}, {"type": "Feature", "geometry": {"type": "Polygon", "coordinates": [[[-0.318855078994248, 39.4617333315143], [-0.3244382367364518, 39.46009791845591], [-0.3254447348462394, 39.45526887108565], [-0.3208686195409392, 39.45207555726004], [-0.31528619845676, 39.453711017572985], [-0.3142791560837665, 39.45853974445114], [-0.318855078994248, 39.4617333315143]]]}, "properties": {"hex_id": 14, "h3": "8839540f43fffff", "population": 4311.0, "centroid_lon": -0.319862065507339, "centroid_lat": 39.456904600402225, "need_sports": true, "need_health": true, "weight_sports": 4311.0, "weight_health": 4311.0}}, {"type": "Feature", "geometry": {"type": "Polygon", "coordinates": [[[-0.3290151771547775, 39.463291303198865], [-0.33459880790872043, 39.46165536727967], [-0.3356047615214552, 39.45682599951125], [-0.33102762894120047, 39.45363288805431], [-0.3254447348462394, 39.45526887108565], [-0.3244382367364518, 39.46009791845591], [-0.3290151771547775, 39.463291303198865]]]}, "properties": {"hex_id": 15, "h3": "8839540f41fffff", "population": 5717.0, "centroid_lon": -0.33002161923875645, "centroid_lat": 39.45846225163361, "need_sports": true, "need_health": true, "weight_sports": 5717.0, "weight_health": 5717.0}}, {"type": "Feature", "geometry": {"type": "Polygon", "coordinates": [[[-0.33148115219597796, 39.42629267923332], [-0.3370620463604389, 39.42465546269895], [-0.33806735437543156, 39.41982557464203], [-0.3334923122875695, 39.41663322359275], [-0.3279121540301723, 39.41827048710677], [-0.3269063020173721, 39.423100054684575], [-0.33148115219597796, 39.42629267923332]]]}, "properties": {"hex_id": 16, "h3": "8839540f2dfffff", "population": 1531.0, "centroid_lon": -0.33248694821690306, "centroid_lat": 39.42146310720199, "need_sports": true, "need_health": true, "weight_sports": 1531.0, "weight_health": 1531.0}}, {"type": "Feature", "geometry": {"type": "Polygon", "coordinates": [[[-0.31473888777651465, 39.43120214485495], [-0.3203195727994201, 39.42956602030434], [-0.3213258803156071, 39.424736748768794], [-0.316752046596611, 39.421543922391294], [-0.31117209762951437, 39.42318009417578], [-0.31016524638942916, 39.428009045098065], [-0.31473888777651465, 39.43120214485495]]]}, "properties": {"hex_id": 17, "h3": "8839540f2bfffff", "population": 1763.0, "centroid_lon": -0.31574568328306335, "centroid_lat": 39.42637318946851, "need_sports": true, "need_health": true, "weight_sports": 1763.0, "weight_health": 1763.0}}, {"type": "Feature", "geometry": {"type": "Polygon", "coordinates": [[[-0.3248942308786807, 39.432758918280825], [-0.330475388637285, 39.431122271288196], [-0.33148115219597796, 39.42629267923332], [-0.3269063020173721, 39.423100054684575], [-0.3213258803156071, 39.424736748768794], [-0.3203195727994201, 39.42956602030434], [-0.3248942308786807, 39.432758918280825]]]}, "properties": {"hex_id": 18, "h3": "8839540f29fffff", "population": 6123.0, "centroid_lon": -0.32590048249562603, "centroid_lat": 39.42792964232008, "need_sports": true, "need_health": true, "weight_sports": 6123.0, "weight_health": 6123.0}}, {"type": "Feature", "geometry": {"type": "Polygon", "coordinates": [[[-0.32187520606222425, 39.44724653371827], [-0.32745736364904754, 39.445610503544245], [-0.3284634943855271, 39.44078118351421], [-0.3238880117093686, 39.43758821415811], [-0.31830659047988974, 39.43922429150522], [-0.31729991563310317, 39.4440532910295], [-0.32187520606222425, 39.44724653371827]]]}, "properties": {"hex_id": 19, "h3": "8839540f0dfffff", "population": 3147.0, "centroid_lon": -0.3228818250294426, "centroid_lat": 39.442417529864414, "need_sports": true, "need_health": true, "weight_sports": 3147.0, "weight_health": 3147.0}}, {"type": "Feature", "geometry": {"type": "Polygon", "coordinates": [[[-0.3051291526636999, 39.452152439368504], [-0.31071110046489897, 39.45051750162331], [-0.311718231056047, 39.44568879862743], [-0.3071439577459666, 39.4424953540107], [-0.30156274645074244, 39.444130339183204], [-0.30055507202350523, 39.44895872153931], [-0.3051291526636999, 39.452152439368504]]]}, "properties": {"hex_id": 20, "h3": "8839540f0bfffff", "population": 2999.0, "centroid_lon": -0.3061367714698571, "centroid_lat": 39.447324052672265, "need_sports": true, "need_health": true, "weight_sports": 2999.0, "weight_health": 2999.0}}, {"type": "Feature", "geometry": {"type": "Polygon", "coordinates": [[[-0.31528619845676, 39.453711017572985], [-0.3208686195409392, 39.45207555726004], [-0.32187520606222425, 39.44724653371827], [-0.31729991563310317, 39.4440532910295], [-0.311718231056047, 39.44568879862743], [-0.31071110046489897, 39.45051750162331], [-0.31528619845676, 39.453711017572985]]]}, "properties": {"hex_id": 21, "h3": "8839540f09fffff", "population": 3062.0, "centroid_lon": -0.3162932732610748, "centroid_lat": 39.448882310275884, "need_sports": true, "need_health": true, "weight_sports": 3062.0, "weight_health": 3062.0}}, {"type": "Feature", "geometry": {"type": "Polygon", "coordinates": [[[-0.30156274645074244, 39.444130339183204], [-0.3071439577459666, 39.4424953540107], [-0.30815117646937845, 39.43766667508608], [-0.30357772760430524, 39.434473302021615], [-0.29799725266413546, 39.436108334651806], [-0.2969894902978469, 39.44093669288296], [-0.30156274645074244, 39.444130339183204]]]}, "properties": {"hex_id": 22, "h3": "8839540f03fffff", "population": 1430.0, "centroid_lon": -0.30257045326891074, "centroid_lat": 39.439301976544655, "need_sports": true, "need_health": true, "weight_sports": 1430.0, "weight_health": 1430.0}}, {"type": "Feature", "geometry": {"type": "Polygon", "coordinates": [[[-0.311718231056047, 39.44568879862743], [-0.31729991563310317, 39.4440532910295], [-0.31830659047988974, 39.43922429150522], [-0.31373212469013645, 39.43603112017272], [-0.30815117646937845, 39.43766667508608], [-0.3071439577459666, 39.4424953540107], [-0.311718231056047, 39.44568879862743]]]}, "properties": {"hex_id": 23, "h3": "8839540f01fffff", "population": 144.0, "centroid_lon": -0.31272539406564326, "centroid_lat": 39.44086011533432, "need_sports": true, "need_health": true, "weight_sports": 144.0, "weight_health": 144.0}}, {"type": "Feature", "geometry": {"type": "Polygon", "coordinates": [[[-0.403184623196305, 39.459682290307164], [-0.4087705550419239, 39.45804207410711], [-0.4097723244843313, 39.453210193419984], [-0.40518870812434865, 39.450018848678866], [-0.3996035126387331, 39.451659110912225], [-0.3986011972169402, 39.456490671847426], [-0.403184623196305, 39.459682290307164]]]}, "properties": {"hex_id": 24, "h3": "8839540aebfffff", "population": 7789.0, "centroid_lon": -0.4041868814103177, "centroid_lat": 39.454850725354895, "need_sports": true, "need_health": false, "weight_sports": 7789.0, "weight_health": 0.0}}, {"type": "Feature", "geometry": {"type": "Polygon", "coordinates": [[[-0.4133549977861808, 39.46123348843705], [-0.4189414001833257, 39.4595927483072], [-0.4199426234128251, 39.45476054796272], [-0.41535799052190236, 39.45156940739947], [-0.4097723244843313, 39.453210193419984], [-0.4087705550419239, 39.45804207410711], [-0.4133549977861808, 39.46123348843705]]]}, "properties": {"hex_id": 25, "h3": "8839540ae9fffff", "population": 3213.0, "centroid_lon": -0.41435670985451495, "centroid_lat": 39.45640160377206, "need_sports": true, "need_health": true, "weight_sports": 3213.0, "weight_health": 3213.0}}, {"type": "Feature", "geometry": {"type": "Polygon", "coordinates": [[[-0.4061905675478858, 39.44518699171321], [-0.4117754973761099, 39.4435461597713], [-0.41277690086879704, 39.43871400695098], [-0.4081939204223876, 39.43552300583207], [-0.402609726653261, 39.437163883726065], [-0.4016077773352228, 39.44199571678093], [-0.4061905675478858, 39.44518699171321]]]}, "properties": {"hex_id": 26, "h3": "8839540ae7fffff", "population": 3866.0, "centroid_lon": -0.4071924596391622, "centroid_lat": 39.44035515454573, "need_sports": true, "need_health": true, "weight_sports": 3866.0, "weight_health": 3866.0}}, {"type": "Feature", "geometry": {"type": "Polygon", "coordinates": [[[-0.4163593039263385, 39.4467372307224], [-0.42194470403291406, 39.44509587498577], [-0.42294556146685136, 39.44026340249459], [-0.4183615649167203, 39.4370726054049], [-0.41277690086879704, 39.43871400695098], [-0.4117754973761099, 39.4435461597713], [-0.4163593039263385, 39.4467372307224]]]}, "properties": {"hex_id": 27, "h3": "8839540ae5fffff", "population": 1916.0, "centroid_lon": -0.4173606500260542, "centroid_lat": 39.441905073828664, "need_sports": true, "need_health": true, "weight_sports": 1916.0, "weight_health": 1916.0}}, {"type": "Feature", "geometry": {"type": "Polygon", "coordinates": [[[-0.3996035126387331, 39.451659110912225], [-0.40518870812434865, 39.450018848678866], [-0.4061905675478858, 39.44518699171321], [-0.4016077773352228, 39.44199571678093], [-0.3960233180592849, 39.443636025078305], [-0.3950209128501313, 39.44846756223798], [-0.3996035126387331, 39.451659110912225]]]}, "properties": {"hex_id": 28, "h3": "8839540ae3fffff", "population": 7956.0, "centroid_lon": -0.40060586071370846, "centroid_lat": 39.4468275696681, "need_sports": true, "need_health": true, "weight_sports": 7956.0, "weight_health": 7956.0}}, {"type": "Feature", "geometry": {"type": "Polygon", "coordinates": [[[-0.4097723244843313, 39.453210193419984], [-0.41535799052190236, 39.45156940739947], [-0.4163593039263385, 39.4467372307224], [-0.4117754973761099, 39.4435461597713], [-0.4061905675478858, 39.44518699171321], [-0.40518870812434865, 39.450018848678866], [-0.4097723244843313, 39.453210193419984]]]}, "properties": {"hex_id": 29, "h3": "8839540ae1fffff", "population": 2436.0, "centroid_lon": -0.4107741266074806, "centroid_lat": 39.44837833240909, "need_sports": true, "need_health": true, "weight_sports": 2436.0, "weight_health": 2436.0}}, {"type": "Feature", "geometry": {"type": "Polygon", "coordinates": [[[-0.38341718881188097, 39.47909338330627], [-0.3890039173434019, 39.47745487719311], [-0.3900070553044074, 39.47262388553013], [-0.3854240106575889, 39.46943171984753], [-0.37983801893791047, 39.471070272329705], [-0.3788343351170894, 39.475900944119495], [-0.38341718881188097, 39.47909338330627]]]}, "properties": {"hex_id": 30, "h3": "8839540addfffff", "population": 13871.0, "centroid_lon": -0.3844208157029377, "centroid_lat": 39.47426270758405, "need_sports": true, "need_health": false, "weight_sports": 13871.0, "weight_health": 0.0}}, {"type": "Feature", "geometry": {"type": "Polygon", "coordinates": [[[-0.36665741621717474, 39.48400671366096], [-0.3722439381438043, 39.48236930153327], [-0.3732480782323185, 39.4775389264764], [-0.36866624204402587, 39.47434628354916], [-0.36308045707961545, 39.47598374230031], [-0.3620757714051918, 39.48081379734933], [-0.36665741621717474, 39.48400671366096]]]}, "properties": {"hex_id": 31, "h3": "8839540adbfffff", "population": 6894.0, "centroid_lon": -0.36766204522087004, "centroid_lat": 39.47917665466868, "need_sports": false, "need_health": false, "weight_sports": 0.0, "weight_health": 0.0}}, {"type": "Feature", "geometry": {"type": "Polygon", "coordinates": [[[-0.3768266006959965, 39.48556201415271], [-0.38241359454320917, 39.48392407827667], [-0.38341718881188097, 39.47909338330627], [-0.3788343351170894, 39.475900944119495], [-0.3732480782323185, 39.4775389264764], [-0.3722439381438043, 39.48236930153327], [-0.3768266006959965, 39.48556201415271]]]}, "properties": {"hex_id": 32, "h3": "8839540ad9fffff", "population": 10892.0, "centroid_lon": -0.3778306839474952, "centroid_lat": 39.48073163519165, "need_sports": true, "need_health": false, "weight_sports": 10892.0, "weight_health": 0.0}}, {"type": "Feature", "geometry": {"type": "Polygon", "coordinates": [[[-0.3696704714908441, 39.46951593172692], [-0.3752559915638392, 39.467877902858426], [-0.3762597648503175, 39.46304725443845], [-0.3716785635598849, 39.459854954902596], [-0.36609378014802485, 39.46149303031339], [-0.3650894614293088, 39.466323358711804], [-0.3696704714908441, 39.46951593172692]]]}, "properties": {"hex_id": 33, "h3": "8839540ad7fffff", "population": 13746.0, "centroid_lon": -0.37067473351953084, "centroid_lat": 39.464685599289616, "need_sports": true, "need_health": false, "weight_sports": 13746.0, "weight_health": 0.0}}, {"type": "Feature", "geometry": {"type": "Polygon", "coordinates": [[[-0.37983801893791047, 39.471070272329705], [-0.3854240106575889, 39.46943171984753], [-0.3864272382780619, 39.464600751500335], [-0.3818450199087082, 39.46140865555656], [-0.3762597648503175, 39.46304725443845], [-0.3752559915638392, 39.467877902858426], [-0.37983801893791047, 39.471070272329705]]]}, "properties": {"hex_id": 34, "h3": "8839540ad5fffff", "population": 11580.0, "centroid_lon": -0.38084173536816013, "centroid_lat": 39.466239619909935, "need_sports": false, "need_health": false, "weight_sports": 0.0, "weight_health": 0.0}}, {"type": "Feature", "geometry": {"type": "Polygon", "coordinates": [[[-0.36308045707961545, 39.47598374230031], [-0.36866624204402587, 39.47434628354916], [-0.3696704714908441, 39.46951593172692], [-0.3650894614293088, 39.466323358711804], [-0.3595044132764356, 39.467960864117124], [-0.3584996384374578, 39.47279089587749], [-0.36308045707961545, 39.47598374230031]]]}, "properties": {"hex_id": 35, "h3": "8839540ad3fffff", "population": 8372.0, "centroid_lon": -0.3640851753213187, "centroid_lat": 39.47115370652932, "need_sports": true, "need_health": true, "weight_sports": 8372.0, "weight_health": 8372.0}}, {"type": "Feature", "geometry": {"type": "Polygon", "coordinates": [[[-0.3732480782323185, 39.4775389264764], [-0.3788343351170894, 39.475900944119495], [-0.37983801893791047, 39.471070272329705], [-0.3752559915638392, 39.467877902858426], [-0.3696704714908441, 39.46951593172692], [-0.36866624204402587, 39.47434628354916], [-0.3732480782323185, 39.4775389264764]]]}, "properties": {"hex_id": 36, "h3": "8839540ad1fffff", "population": 14017.0, "centroid_lon": -0.3742522509156409, "centroid_lat": 39.47270857068262, "need_sports": true, "need_health": false, "weight_sports": 14017.0, "weight_health": 0.0}}, {"type": "Feature", "geometry": {"type": "Polygon", "coordinates": [[[-0.410349593540296, 39.47572892814276], [-0.41593699855696237, 39.47408880391709], [-0.41693858777709053, 39.46925687635501], [-0.41235331841153816, 39.46606539265633], [-0.40676665005559337, 39.467705562853794], [-0.4057645144683225, 39.47253717077212], [-0.410349593540296, 39.47572892814276]]]}, "properties": {"hex_id": 37, "h3": "8839540acdfffff", "population": 13588.0, "centroid_lon": -0.41135167177241555, "centroid_lat": 39.4708973163421, "need_sports": true, "need_health": false, "weight_sports": 13588.0, "weight_health": 0.0}}, {"type": "Feature", "geometry": {"type": "Polygon", "coordinates": [[[-0.39358778850478277, 39.48064711239456], [-0.39917498840921123, 39.47900808237465], [-0.4001775802766017, 39.47417677093291], [-0.39559351839706325, 39.47098480928385], [-0.3900070553044074, 39.47262388553013], [-0.3890039173434019, 39.47745487719311], [-0.39358778850478277, 39.48064711239456]]]}, "properties": {"hex_id": 38, "h3": "8839540acbfffff", "population": 10851.0, "centroid_lon": -0.3945908693697112, "centroid_lat": 39.47581611683827, "need_sports": false, "need_health": false, "weight_sports": 0.0, "weight_health": 0.0}}, {"type": "Feature", "geometry": {"type": "Polygon", "coordinates": [[[-0.4037598769970905, 39.48220011334578], [-0.40934754800032946, 39.48056055926868], [-0.410349593540296, 39.47572892814276], [-0.4057645144683225, 39.47253717077212], [-0.4001775802766017, 39.47417677093291], [-0.39917498840921123, 39.47900808237465], [-0.4037598769970905, 39.48220011334578]]]}, "properties": {"hex_id": 39, "h3": "8839540ac9fffff", "population": 7206.0, "centroid_lon": -0.40476241160198734, "centroid_lat": 39.47736879804993, "need_sports": true, "need_health": false, "weight_sports": 7206.0, "weight_health": 0.0}}, {"type": "Feature", "geometry": {"type": "Polygon", "coordinates": [[[-0.3965962001177824, 39.466153521103834], [-0.40218239764845076, 39.46451387482858], [-0.403184623196305, 39.459682290307164], [-0.3986011972169402, 39.456490671847426], [-0.39301573619691266, 39.458130364267916], [-0.39201296470945857, 39.46296162899693], [-0.3965962001177824, 39.466153521103834]]]}, "properties": {"hex_id": 40, "h3": "8839540ac7fffff", "population": 10143.0, "centroid_lon": -0.3975989144900885, "centroid_lat": 39.46132225238593, "need_sports": true, "need_health": true, "weight_sports": 10143.0, "weight_health": 10143.0}}, {"type": "Feature", "geometry": {"type": "Polygon", "coordinates": [[[-0.40676665005559337, 39.467705562853794], [-0.41235331841153816, 39.46606539265633], [-0.4133549977861808, 39.46123348843705], [-0.4087705550419239, 39.45804207410711], [-0.403184623196305, 39.459682290307164], [-0.40218239764845076, 39.46451387482858], [-0.40676665005559337, 39.467705562853794]]]}, "properties": {"hex_id": 41, "h3": "8839540ac5fffff", "population": 10877.0, "centroid_lon": -0.4077688183220004, "centroid_lat": 39.462873974382674, "need_sports": true, "need_health": false, "weight_sports": 10877.0, "weight_health": 0.0}}, {"type": "Feature", "geometry": {"type": "Polygon", "coordinates": [[[-0.3900070553044074, 39.47262388553013], [-0.39559351839706325, 39.47098480928385], [-0.3965962001177824, 39.466153521103834], [-0.39201296470945857, 39.46296162899693], [-0.3864272382780619, 39.464600751500335], [-0.3854240106575889, 39.46943171984753], [-0.3900070553044074, 39.47262388553013]]]}, "properties": {"hex_id": 42, "h3": "8839540ac3fffff", "population": 12392.0, "centroid_lon": -0.39101022590239554, "centroid_lat": 39.467792913222254, "need_sports": false, "need_health": false, "weight_sports": 0.0, "weight_health": 0.0}}, {"type": "Feature", "geometry": {"type": "Polygon", "coordinates": [[[-0.4001775802766017, 39.47417677093291], [-0.4057645144683225, 39.47253717077212], [-0.40676665005559337, 39.467705562853794], [-0.40218239764845076, 39.46451387482858], [-0.3965962001177824, 39.466153521103834], [-0.39559351839706325, 39.47098480928385], [-0.4001775802766017, 39.47417677093291]]]}, "properties": {"hex_id": 43, "h3": "8839540ac1fffff", "population": 12642.0, "centroid_lon": -0.40118020480853234, "centroid_lat": 39.46934547883139, "need_sports": true, "need_health": false, "weight_sports": 12642.0, "weight_health": 0.0}}, {"type": "Feature", "geometry": {"type": "Polygon", "coordinates": [[[-0.3756932810074804, 39.440531910510614], [-0.3812767983579414, 39.43889264905181], [-0.382279838626397, 39.4340614558113], [-0.3776999067332372, 39.430869844072404], [-0.37211712544224257, 39.4325091519109], [-0.3711135400487432, 39.43734002510267], [-0.3756932810074804, 39.440531910510614]]]}, "properties": {"hex_id": 44, "h3": "8839540abdfffff", "population": 4415.0, "centroid_lon": -0.3766968096724777, "centroid_lat": 39.43570103308877, "need_sports": true, "need_health": true, "weight_sports": 4415.0, "weight_health": 4415.0}}, {"type": "Feature", "geometry": {"type": "Polygon", "coordinates": [[[-0.3589431423647951, 39.445447509130105], [-0.36452645290614455, 39.4438093405429], [-0.3655304940710369, 39.43897876336756], [-0.36095176960987896, 39.4357866749569], [-0.355369195277959, 39.43742489017818], [-0.3543646092615854, 39.44225514717015], [-0.3589431423647951, 39.445447509130105]]]}, "properties": {"hex_id": 45, "h3": "8839540abbfffff", "population": 6727.0, "centroid_lon": -0.3599476719112857, "centroid_lat": 39.44061724789723, "need_sports": true, "need_health": true, "weight_sports": 6727.0, "weight_health": 6727.0}}, {"type": "Feature", "geometry": {"type": "Polygon", "coordinates": [[[-0.36910600274020483, 39.44700149954836], [-0.3746897849276333, 39.44536280777506], [-0.3756932810074804, 39.440531910510614], [-0.3711135400487432, 39.43734002510267], [-0.3655304940710369, 39.43897876336756], [-0.36452645290614455, 39.4438093405429], [-0.36910600274020483, 39.44700149954836]]]}, "properties": {"hex_id": 46, "h3": "8839540ab9fffff", "population": 8019.0, "centroid_lon": -0.3701099872692068, "centroid_lat": 39.4421709181712, "need_sports": true, "need_health": true, "weight_sports": 8019.0, "weight_health": 8019.0}}, {"type": "Feature", "geometry": {"type": "Polygon", "coordinates": [[[-0.36195589989493443, 39.430956121908125], [-0.36753820981338425, 39.42931733712112], [-0.3685418844342155, 39.42448648819119], [-0.3639637938985233, 39.421294744239255], [-0.35838221988891217, 39.422933575578895], [-0.3573780005699278, 39.427764104311954], [-0.36195589989493443, 39.430956121908125]]]}, "properties": {"hex_id": 47, "h3": "8839540ab7fffff", "population": 10705.0, "centroid_lon": -0.36296006272469417, "centroid_lat": 39.426125588838595, "need_sports": true, "need_health": false, "weight_sports": 10705.0, "weight_health": 0.0}}, {"type": "Feature", "geometry": {"type": "Polygon", "coordinates": [[[-0.37211712544224257, 39.4325091519109], [-0.3776999067332372, 39.430869844072404], [-0.3787030364224946, 39.42603867503986], [-0.37412392981611403, 39.42284713394251], [-0.3685418844342155, 39.42448648819119], [-0.36753820981338425, 39.42931733712112], [-0.37211712544224257, 39.4325091519109]]]}, "properties": {"hex_id": 48, "h3": "8839540ab5fffff", "population": 6203.0, "centroid_lon": -0.37312074340794665, "centroid_lat": 39.42767829868355, "need_sports": true, "need_health": true, "weight_sports": 6203.0, "weight_health": 6203.0}}, {"type": "Feature", "geometry": {"type": "Polygon", "coordinates": [[[-0.355369195277959, 39.43742489017818], [-0.36095176960987896, 39.4357866749569], [-0.36195589989493443, 39.430956121908125], [-0.3573780005699278, 39.427764104311954], [-0.3517961622968987, 39.429402366197785], [-0.3507914873537842, 39.43423259900934], [-0.355369195277959, 39.43742489017818]]]}, "properties": {"hex_id": 49, "h3": "8839540ab3fffff", "population": 3936.0, "centroid_lon": -0.35637381382445754, "centroid_lat": 39.4325946530584, "need_sports": true, "need_health": true, "weight_sports": 3936.0, "weight_health": 3936.0}}, {"type": "Feature", "geometry": {"type": "Polygon", "coordinates": [[[-0.3655304940710369, 39.43897876336756], [-0.3711135400487432, 39.43734002510267], [-0.37211712544224257, 39.4325091519109], [-0.36753820981338425, 39.42931733712112], [-0.36195589989493443, 39.430956121908125], [-0.36095176960987896, 39.4357866749569], [-0.3655304940710369, 39.43897876336756]]]}, "properties": {"hex_id": 50, "h3": "8839540ab1fffff", "population": 3499.0, "centroid_lon": -0.36653456779355953, "centroid_lat": 39.434148206049635, "need_sports": true, "need_health": true, "weight_sports": 3499.0, "weight_health": 3499.0}}, {"type": "Feature", "geometry": {"type": "Polygon", "coordinates": [[[-0.402609726653261, 39.437163883726065], [-0.4081939204223876, 39.43552300583207], [-0.40919541391668396, 39.43069087705785], [-0.404613259337292, 39.42749994599111], [-0.39902980147705475, 39.429140869867815], [-0.3980277623510808, 39.43397267882258], [-0.402609726653261, 39.437163883726065]]]}, "properties": {"hex_id": 51, "h3": "8839540aadfffff", "population": 4857.0, "centroid_lon": -0.4036117086260673, "centroid_lat": 39.4323320705913, "need_sports": true, "need_health": true, "weight_sports": 4857.0, "weight_health": 4857.0}}, {"type": "Feature", "geometry": {"type": "Polygon", "coordinates": [[[-0.38585755577462194, 39.4420843312125], [-0.39144154422454547, 39.440444546409495], [-0.3924440391345203, 39.435613033214615], [-0.3878630910168223, 39.432421624771145], [-0.382279838626397, 39.4340614558113], [-0.3812767983579414, 39.43889264905181], [-0.38585755577462194, 39.4420843312125]]]}, "properties": {"hex_id": 52, "h3": "8839540aabfffff", "population": 5739.0, "centroid_lon": -0.38686053914854335, "centroid_lat": 39.43725313378103, "need_sports": true, "need_health": true, "weight_sports": 5739.0, "weight_health": 5739.0}}, {"type": "Feature", "geometry": {"type": "Polygon", "coordinates": [[[-0.3960233180592849, 39.443636025078305], [-0.4016077773352228, 39.44199571678093], [-0.402609726653261, 39.437163883726065], [-0.3980277623510808, 39.43397267882258], [-0.3924440391345203, 39.435613033214615], [-0.39144154422454547, 39.440444546409495], [-0.3960233180592849, 39.443636025078305]]]}, "properties": {"hex_id": 53, "h3": "8839540aa9fffff", "population": 2875.0, "centroid_lon": -0.3970257559086398, "centroid_lat": 39.438804507731604, "need_sports": true, "need_health": true, "weight_sports": 2875.0, "weight_health": 2875.0}}, {"type": "Feature", "geometry": {"type": "Polygon", "coordinates": [[[-0.3888656755411485, 39.42759013573027], [-0.39444866284858743, 39.42594973521303], [-0.395450791696002, 39.421117950547625], [-0.39087047850454093, 39.417926886361386], [-0.3852882269559806, 39.41956733303441], [-0.38428555290374744, 39.42439879773198], [-0.3888656755411485, 39.42759013573027]]]}, "properties": {"hex_id": 54, "h3": "8839540aa7fffff", "population": 8076.0, "centroid_lon": -0.38986829267973794, "centroid_lat": 39.42275866674621, "need_sports": true, "need_health": true, "weight_sports": 8076.0, "weight_health": 8076.0}}, {"type": "Feature", "geometry": {"type": "Polygon", "coordinates": [[[-0.39902980147705475, 39.429140869867815], [-0.404613259337292, 39.42749994599111], [-0.4056148427466135, 39.42266784145229], [-0.40103351379752605, 39.419476980657635], [-0.395450791696002, 39.421117950547625], [-0.39444866284858743, 39.42594973521303], [-0.39902980147705475, 39.429140869867815]]]}, "properties": {"hex_id": 55, "h3": "8839540aa5fffff", "population": 9833.0, "centroid_lon": -0.40003187324483647, "centroid_lat": 39.42430908095505, "need_sports": true, "need_health": true, "weight_sports": 9833.0, "weight_health": 9833.0}}, {"type": "Feature", "geometry": {"type": "Polygon", "coordinates": [[[-0.382279838626397, 39.4340614558113], [-0.3878630910168223, 39.432421624771145], [-0.3888656755411485, 39.42759013573027], [-0.38428555290374744, 39.42439879773198], [-0.3787030364224946, 39.42603867503986], [-0.3776999067332372, 39.430869844072404], [-0.382279838626397, 39.4340614558113]]]}, "properties": {"hex_id": 56, "h3": "8839540aa3fffff", "population": 6173.0, "centroid_lon": -0.3832829114945835, "centroid_lat": 39.429230282520464, "need_sports": true, "need_health": true, "weight_sports": 6173.0, "weight_health": 6173.0}}, {"type": "Feature", "geometry": {"type": "Polygon", "coordinates": [[[-0.3924440391345203, 39.435613033214615], [-0.3980277623510808, 39.43397267882258], [-0.39902980147705475, 39.429140869867815], [-0.39444866284858743, 39.42594973521303], [-0.3888656755411485, 39.42759013573027], [-0.3878630910168223, 39.432421624771145], [-0.3924440391345203, 39.435613033214615]]]}, "properties": {"hex_id": 57, "h3": "8839540aa1fffff", "population": 7180.0, "centroid_lon": -0.39344656667172595, "centroid_lat": 39.430781539954594, "need_sports": true, "need_health": true, "weight_sports": 7180.0, "weight_health": 7180.0}}, {"type": "Feature", "geometry": {"type": "Polygon", "coordinates": [[[-0.36609378014802485, 39.46149303031339], [-0.3716785635598849, 39.459854954902596], [-0.37268242622552844, 39.45502433004166], [-0.3681020507817481, 39.451832100661086], [-0.3625180038804398, 39.453470222644796], [-0.3615135959762066, 39.45830052743021], [-0.36609378014802485, 39.46149303031339]]]}, "properties": {"hex_id": 58, "h3": "8839540a9dfffff", "population": 11955.0, "centroid_lon": -0.36709813143565106, "centroid_lat": 39.45666272142173, "need_sports": false, "need_health": false, "weight_sports": 0.0, "weight_health": 0.0}}, {"type": "Feature", "geometry": {"type": "Polygon", "coordinates": [[[-0.3493398446074861, 39.46640506989563], [-0.35492442056699286, 39.46476808780293], [-0.3559292844841759, 39.45993807952035], [-0.3513501174704235, 39.45674537353459], [-0.3457662781713014, 39.458382402454575], [-0.344760869289438, 39.46321209052713], [-0.3493398446074861, 39.46640506989563]]]}, "properties": {"hex_id": 59, "h3": "8839540a9bfffff", "population": 8726.0, "centroid_lon": -0.3503451971315571, "centroid_lat": 39.46157537770607, "need_sports": false, "need_health": false, "weight_sports": 0.0, "weight_health": 0.0}}, {"type": "Feature", "geometry": {"type": "Polygon", "coordinates": [[[-0.3595044132764356, 39.467960864117124], [-0.3650894614293088, 39.466323358711804], [-0.36609378014802485, 39.46149303031339], [-0.3615135959762066, 39.45830052743021], [-0.3559292844841759, 39.45993807952035], [-0.35492442056699286, 39.46476808780293], [-0.3595044132764356, 39.467960864117124]]]}, "properties": {"hex_id": 60, "h3": "8839540a99fffff", "population": 8623.0, "centroid_lon": -0.3605092206697406, "centroid_lat": 39.463130851756574, "need_sports": false, "need_health": false, "weight_sports": 0.0, "weight_health": 0.0}}, {"type": "Feature", "geometry": {"type": "Polygon", "coordinates": [[[-0.3523550703795138, 39.451915388918934], [-0.3579386453613681, 39.45027779011338], [-0.3589431423647951, 39.445447509130105], [-0.3543646092615854, 39.44225514717015], [-0.34878177063929244, 39.44389279272166], [-0.3477767288245006, 39.448722753481285], [-0.3523550703795138, 39.451915388918934]]]}, "properties": {"hex_id": 61, "h3": "8839540a97fffff", "population": 3811.0, "centroid_lon": -0.3533600558170785, "centroid_lat": 39.44708542394669, "need_sports": true, "need_health": true, "weight_sports": 3811.0, "weight_health": 3811.0}}, {"type": "Feature", "geometry": {"type": "Polygon", "coordinates": [[[-0.3625180038804398, 39.453470222644796], [-0.3681020507817481, 39.451832100661086], [-0.36910600274020483, 39.44700149954836], [-0.36452645290614455, 39.4438093405429], [-0.3589431423647951, 39.445447509130105], [-0.3579386453613681, 39.45027779011338], [-0.3625180038804398, 39.453470222644796]]]}, "properties": {"hex_id": 62, "h3": "8839540a95fffff", "population": 5228.0, "centroid_lon": -0.3635224443406486, "centroid_lat": 39.44863993748796, "need_sports": true, "need_health": true, "weight_sports": 5228.0, "weight_health": 5228.0}}, {"type": "Feature", "geometry": {"type": "Polygon", "coordinates": [[[-0.3457662781713014, 39.458382402454575], [-0.3513501174704235, 39.45674537353459], [-0.3523550703795138, 39.451915388918934], [-0.3477767288245006, 39.448722753481285], [-0.3421936260350651, 39.45035982925915], [-0.3411881283548154, 39.45518949361089], [-0.3457662781713014, 39.458382402454575]]]}, "properties": {"hex_id": 63, "h3": "8839540a93fffff", "population": 3790.0, "centroid_lon": -0.34677171956702924, "centroid_lat": 39.453552733918514, "need_sports": true, "need_health": true, "weight_sports": 3790.0, "weight_health": 3790.0}}, {"type": "Feature", "geometry": {"type": "Polygon", "coordinates": [[[-0.3559292844841759, 39.45993807952035], [-0.3615135959762066, 39.45830052743021], [-0.3625180038804398, 39.453470222644796], [-0.3579386453613681, 39.45027779011338], [-0.3523550703795138, 39.451915388918934], [-0.3513501174704235, 39.45674537353459], [-0.3559292844841759, 39.45993807952035]]]}, "properties": {"hex_id": 64, "h3": "8839540a91fffff", "population": 4707.0, "centroid_lon": -0.35693418094274887, "centroid_lat": 39.45510809075941, "need_sports": false, "need_health": false, "weight_sports": 0.0, "weight_health": 0.0}}, {"type": "Feature", "geometry": {"type": "Polygon", "coordinates": [[[-0.39301573619691266, 39.458130364267916], [-0.3986011972169402, 39.456490671847426], [-0.3996035126387331, 39.451659110912225], [-0.3950209128501313, 39.44846756223798], [-0.38943618819034237, 39.45010730083439], [-0.3884333270227218, 39.45493854192317], [-0.39301573619691266, 39.458130364267916]]]}, "properties": {"hex_id": 65, "h3": "8839540a8dfffff", "population": 9018.0, "centroid_lon": -0.394018540322953, "centroid_lat": 39.453299119122896, "need_sports": true, "need_health": false, "weight_sports": 9018.0, "weight_health": 0.0}}, {"type": "Feature", "geometry": {"type": "Polygon", "coordinates": [[[-0.3762597648503175, 39.46304725443845], [-0.3818450199087082, 39.46140865555656], [-0.38284833710209626, 39.456577710714384], [-0.37826694477319883, 39.45338568472938], [-0.37268242622552844, 39.45502433004166], [-0.3716785635598849, 39.459854954902596], [-0.3762597648503175, 39.46304725443845]]]}, "properties": {"hex_id": 66, "h3": "8839540a8bfffff", "population": 10289.0, "centroid_lon": -0.37726357073324174, "centroid_lat": 39.45821662551035, "need_sports": false, "need_health": false, "weight_sports": 0.0, "weight_health": 0.0}}, {"type": "Feature", "geometry": {"type": "Polygon", "coordinates": [[[-0.3864272382780619, 39.464600751500335], [-0.39201296470945857, 39.46296162899693], [-0.39301573619691266, 39.458130364267916], [-0.3884333270227218, 39.45493854192317], [-0.38284833710209626, 39.456577710714384], [-0.3818450199087082, 39.46140865555656], [-0.3864272382780619, 39.464600751500335]]]}, "properties": {"hex_id": 67, "h3": "8839540a89fffff", "population": 12079.0, "centroid_lon": -0.3874304985225337, "centroid_lat": 39.45976980263012, "need_sports": true, "need_health": false, "weight_sports": 12079.0, "weight_health": 0.0}}, {"type": "Feature", "geometry": {"type": "Polygon", "coordinates": [[[-0.3792703514530163, 39.44855476358147], [-0.38485460501334895, 39.44691554847175], [-0.38585755577462194, 39.4420843312125], [-0.3812767983579414, 39.43889264905181], [-0.3756932810074804, 39.440531910510614], [-0.3746897849276333, 39.44536280777506], [-0.3792703514530163, 39.44855476358147]]]}, "properties": {"hex_id": 68, "h3": "8839540a87fffff", "population": 5478.0, "centroid_lon": -0.3802737907309485, "centroid_lat": 39.44372386215428, "need_sports": true, "need_health": true, "weight_sports": 5478.0, "weight_health": 5478.0}}, {"type": "Feature", "geometry": {"type": "Polygon", "coordinates": [[[-0.38943618819034237, 39.45010730083439], [-0.3950209128501313, 39.44846756223798], [-0.3960233180592849, 39.443636025078305], [-0.39144154422454547, 39.440444546409495], [-0.38585755577462194, 39.4420843312125], [-0.38485460501334895, 39.44691554847175], [-0.38943618819034237, 39.45010730083439]]]}, "properties": {"hex_id": 69, "h3": "8839540a85fffff", "population": 9184.0, "centroid_lon": -0.39043908198357724, "centroid_lat": 39.445276079451546, "need_sports": false, "need_health": false, "weight_sports": 0.0, "weight_health": 0.0}}, {"type": "Feature", "geometry": {"type": "Polygon", "coordinates": [[[-0.37268242622552844, 39.45502433004166], [-0.37826694477319883, 39.45338568472938], [-0.3792703514530163, 39.44855476358147], [-0.3746897849276333, 39.44536280777506], [-0.36910600274020483, 39.44700149954836], [-0.3681020507817481, 39.451832100661086], [-0.37268242622552844, 39.45502433004166]]]}, "properties": {"hex_id": 70, "h3": "8839540a83fffff", "population": 9352.0, "centroid_lon": -0.37368632147469905, "centroid_lat": 39.45019372479443, "need_sports": false, "need_health": false, "weight_sports": 0.0, "weight_health": 0.0}}, {"type": "Feature", "geometry": {"type": "Polygon", "coordinates": [[[-0.38284833710209626, 39.456577710714384], [-0.3884333270227218, 39.45493854192317], [-0.38943618819034237, 39.45010730083439], [-0.38485460501334895, 39.44691554847175], [-0.3792703514530163, 39.44855476358147], [-0.37826694477319883, 39.45338568472938], [-0.38284833710209626, 39.456577710714384]]]}, "properties": {"hex_id": 71, "h3": "8839540a81fffff", "population": 10600.0, "centroid_lon": -0.38385168690653265, "centroid_lat": 39.45174678547109, "need_sports": true, "need_health": false, "weight_sports": 10600.0, "weight_health": 0.0}}, {"type": "Feature", "geometry": {"type": "Polygon", "coordinates": [[[-0.41693858777709053, 39.46925687635501], [-0.4225257266841034, 39.46761618208508], [-0.42352685965190046, 39.46278395826255], [-0.4189414001833257, 39.4595927483072], [-0.4133549977861808, 39.46123348843705], [-0.41235331841153816, 39.46606539265633], [-0.41693858777709053, 39.46925687635501]]]}, "properties": {"hex_id": 72, "h3": "8839540a13fffff", "population": 5149.0, "centroid_lon": -0.41794020970389645, "centroid_lat": 39.46442496822525, "need_sports": true, "need_health": true, "weight_sports": 5149.0, "weight_health": 5149.0}}, {"type": "Feature", "geometry": {"type": "Polygon", "coordinates": [[[-0.3416379129600808, 39.42784788517458], [-0.3472192793150426, 39.42621014603966], [-0.3482240430987559, 39.42137993759762], [-0.3436479848225631, 39.418187788669755], [-0.33806735437543156, 39.41982557464203], [-0.3370620463604389, 39.42465546269895], [-0.3416379129600808, 39.42784788517458]]]}, "properties": {"hex_id": 73, "h3": "88395408dbfffff", "population": 4624.0, "centroid_lon": -0.3426431648174688, "centroid_lat": 39.4230179927031, "need_sports": true, "need_health": true, "weight_sports": 4624.0, "weight_health": 4624.0}}, {"type": "Feature", "geometry": {"type": "Polygon", "coordinates": [[[-0.3517961622968987, 39.429402366197785], [-0.3573780005699278, 39.427764104311954], [-0.35838221988891217, 39.422933575578895], [-0.35380514546336944, 39.419741629016805], [-0.3482240430987559, 39.42137993759762], [-0.3472192793150426, 39.42621014603966], [-0.3517961622968987, 39.429402366197785]]]}, "properties": {"hex_id": 74, "h3": "88395408d9fffff", "population": 4544.0, "centroid_lon": -0.35280086975722186, "centroid_lat": 39.424572153380225, "need_sports": true, "need_health": true, "weight_sports": 4544.0, "weight_health": 4544.0}}, {"type": "Feature", "geometry": {"type": "Polygon", "coordinates": [[[-0.3787030364224946, 39.42603867503986], [-0.38428555290374744, 39.42439879773198], [-0.3852882269559806, 39.41956733303441], [-0.38070892956221464, 39.416376065701016], [-0.3751271488398498, 39.418015989307165], [-0.37412392981611403, 39.42284713394251], [-0.3787030364224946, 39.42603867503986]]]}, "properties": {"hex_id": 75, "h3": "88395408c9fffff", "population": 4933.0, "centroid_lon": -0.3797061986985447, "centroid_lat": 39.42120752607887, "need_sports": true, "need_health": true, "weight_sports": 4933.0, "weight_health": 4933.0}}, {"type": "Feature", "geometry": {"type": "Polygon", "coordinates": [[[-0.41277690086879704, 39.43871400695098], [-0.4183615649167203, 39.4370726054049], [-0.4193625125460008, 39.43224015690576], [-0.41477934205611233, 39.429049429671636], [-0.40919541391668396, 39.43069087705785], [-0.4081939204223876, 39.43552300583207], [-0.41277690086879704, 39.43871400695098]]]}, "properties": {"hex_id": 76, "h3": "883954085bfffff", "population": 4273.0, "centroid_lon": -0.4137783370437806, "centroid_lat": 39.43388187403595, "need_sports": true, "need_health": true, "weight_sports": 4273.0, "weight_health": 4273.0}}, {"type": "Feature", "geometry": {"type": "Polygon", "coordinates": [[[-0.40919541391668396, 39.43069087705785], [-0.41477934205611233, 39.429049429671636], [-0.415780379794047, 39.42421700535391], [-0.41119803512767533, 39.42102634819532], [-0.4056148427466135, 39.42266784145229], [-0.404613259337292, 39.42749994599111], [-0.40919541391668396, 39.43069087705785]]]}, "properties": {"hex_id": 77, "h3": "8839540853fffff", "population": 5995.0, "centroid_lon": -0.4101969400802934, "centroid_lat": 39.42585876831085, "need_sports": true, "need_health": true, "weight_sports": 5995.0, "weight_health": 5995.0}}, {"type": "Feature", "geometry": {"type": "Polygon", "coordinates": [[[-0.37381408178989495, 39.50005293427828], [-0.3794020780932378, 39.49841561530523], [-0.3804060392056107, 39.4935851943467], [-0.3758225500523005, 39.49039241225501], [-0.37023529101268393, 39.492029777789995], [-0.3692307839266124, 39.49685987884879], [-0.37381408178989495, 39.50005293427828]]]}, "properties": {"hex_id": 78, "h3": "88395401edfffff", "population": 12496.0, "centroid_lon": -0.3748185320581981, "centroid_lat": 39.49522282941093, "need_sports": false, "need_health": false, "weight_sports": 0.0, "weight_health": 0.0}}, {"type": "Feature", "geometry": {"type": "Polygon", "coordinates": [[[-0.3570505071677368, 39.50496270232019], [-0.36263829622212584, 39.50332647777875], [-0.3636432598179053, 39.498496673938845], [-0.35906098012274373, 39.49530341466878], [-0.3534739284823622, 39.496939686026636], [-0.3524684191871147, 39.50176916983224], [-0.3570505071677368, 39.50496270232019]]]}, "properties": {"hex_id": 79, "h3": "88395401ebfffff", "population": 2602.0, "centroid_lon": -0.3580559599044337, "centroid_lat": 39.50013321469524, "need_sports": false, "need_health": true, "weight_sports": 0.0, "weight_health": 2602.0}}, {"type": "Feature", "geometry": {"type": "Polygon", "coordinates": [[[-0.3672214026046842, 39.50651980647448], [-0.3728096641277168, 39.50488305805816], [-0.37381408178989495, 39.50005293427828], [-0.3692307839266124, 39.49685987884879], [-0.3636432598179053, 39.498496673938845], [-0.36263829622212584, 39.50332647777875], [-0.3672214026046842, 39.50651980647448]]]}, "properties": {"hex_id": 80, "h3": "88395401e9fffff", "population": 4375.0, "centroid_lon": -0.3682263094755176, "centroid_lat": 39.5016899988543, "need_sports": true, "need_health": true, "weight_sports": 4375.0, "weight_health": 4375.0}}, {"type": "Feature", "geometry": {"type": "Polygon", "coordinates": [[[-0.3600660329484855, 39.49047363360411], [-0.3656528197936891, 39.48883679180944], [-0.36665741621717474, 39.48400671366096], [-0.3620757714051918, 39.48081379734933], [-0.3564897216726794, 39.48245068587928], [-0.35548457970340064, 39.48728044397965], [-0.3600660329484855, 39.49047363360411]]]}, "properties": {"hex_id": 81, "h3": "88395401e7fffff", "population": 13475.0, "centroid_lon": -0.3610711183398308, "centroid_lat": 39.485643871588735, "need_sports": true, "need_health": false, "weight_sports": 13475.0, "weight_health": 0.0}}, {"type": "Feature", "geometry": {"type": "Polygon", "coordinates": [[[-0.37023529101268393, 39.492029777789995], [-0.3758225500523005, 39.49039241225501], [-0.3768266006959965, 39.48556201415271], [-0.3722439381438043, 39.48236930153327], [-0.36665741621717474, 39.48400671366096], [-0.3656528197936891, 39.48883679180944], [-0.37023529101268393, 39.492029777789995]]]}, "properties": {"hex_id": 82, "h3": "88395401e5fffff", "population": 11246.0, "centroid_lon": -0.3712398306919403, "centroid_lat": 39.48719969576559, "need_sports": false, "need_health": false, "weight_sports": 0.0, "weight_health": 0.0}}, {"type": "Feature", "geometry": {"type": "Polygon", "coordinates": [[[-0.3534739284823622, 39.496939686026636], [-0.35906098012274373, 39.49530341466878], [-0.3600660329484855, 39.49047363360411], [-0.35548457970340064, 39.48728044397965], [-0.34989826532611545, 39.488916762184665], [-0.3488926669947829, 39.49374622316103], [-0.3534739284823622, 39.496939686026636]]]}, "properties": {"hex_id": 83, "h3": "88395401e3fffff", "population": 4136.0, "centroid_lon": -0.35447947032858423, "centroid_lat": 39.492110221163564, "need_sports": true, "need_health": true, "weight_sports": 4136.0, "weight_health": 4136.0}}, {"type": "Feature", "geometry": {"type": "Polygon", "coordinates": [[[-0.3636432598179053, 39.498496673938845], [-0.3692307839266124, 39.49685987884879], [-0.37023529101268393, 39.492029777789995], [-0.3656528197936891, 39.48883679180944], [-0.3600660329484855, 39.49047363360411], [-0.35906098012274373, 39.49530341466878], [-0.3636432598179053, 39.498496673938845]]]}, "properties": {"hex_id": 84, "h3": "88395401e1fffff", "population": 5769.0, "centroid_lon": -0.36464825599224215, "centroid_lat": 39.4936668890265, "need_sports": false, "need_health": false, "weight_sports": 0.0, "weight_health": 0.0}}, {"type": "Feature", "geometry": {"type": "Polygon", "coordinates": [[[-0.33726792104692827, 39.52435557807036], [-0.34285650419736685, 39.52272106579629], [-0.3438628377259588, 39.51789215466466], [-0.33928113374664515, 39.51469807595586], [-0.33369328846156965, 39.51633263538176], [-0.332686409354498, 39.52116122635871], [-0.33726792104692827, 39.52435557807036]]]}, "properties": {"hex_id": 85, "h3": "88395401ddfffff", "population": 714.0, "centroid_lon": -0.3382747438742383, "centroid_lat": 39.51952698335902, "need_sports": true, "need_health": true, "weight_sports": 714.0, "weight_health": 714.0}}, {"type": "Feature", "geometry": {"type": "Polygon", "coordinates": [[[-0.3235252316692047, 39.51477238909209], [-0.32911260339074017, 39.51313835322268], [-0.33011957121127106, 39.50830978466974], [-0.32553971252455677, 39.50511557228311], [-0.31995307851638566, 39.506749655477684], [-0.31894556554559855, 39.51157790372784], [-0.3235252316692047, 39.51477238909209]]]}, "properties": {"hex_id": 86, "h3": "88395401d7fffff", "population": 1366.0, "centroid_lon": -0.32453268859987544, "centroid_lat": 39.509944137001256, "need_sports": true, "need_health": true, "weight_sports": 1366.0, "weight_health": 1366.0}}, {"type": "Feature", "geometry": {"type": "Polygon", "coordinates": [[[-0.33369328846156965, 39.51633263538176], [-0.33928113374664515, 39.51469807595586], [-0.3402875561825957, 39.50986918719422], [-0.3357066787820979, 39.50667517806125], [-0.33011957121127106, 39.50830978466974], [-0.32911260339074017, 39.51313835322268], [-0.33369328846156965, 39.51633263538176]]]}, "properties": {"hex_id": 87, "h3": "88395401d5fffff", "population": 1683.0, "centroid_lon": -0.33470020007571555, "centroid_lat": 39.5115040630271, "need_sports": true, "need_health": true, "weight_sports": 1683.0, "weight_health": 1683.0}}, {"type": "Feature", "geometry": {"type": "Polygon", "coordinates": [[[-0.3169301714694221, 39.521234124847304], [-0.3225178072179934, 39.51960065982028], [-0.3235252316692047, 39.51477238909209], [-0.31894556554559855, 39.51157790372784], [-0.31335866766063136, 39.51321141619183], [-0.3123506980997225, 39.51803936657723], [-0.3169301714694221, 39.521234124847304]]]}, "properties": {"hex_id": 88, "h3": "88395401d3fffff", "population": 291.0, "centroid_lon": -0.31793808508321064, "centroid_lat": 39.51640617064961, "need_sports": true, "need_health": true, "weight_sports": 291.0, "weight_health": 291.0}}, {"type": "Feature", "geometry": {"type": "Polygon", "coordinates": [[[-0.32709829976837546, 39.5227952149337], [-0.332686409354498, 39.52116122635871], [-0.33369328846156965, 39.51633263538176], [-0.32911260339074017, 39.51313835322268], [-0.3235252316692047, 39.51477238909209], [-0.3225178072179934, 39.51960065982028], [-0.32709829976837546, 39.5227952149337]]]}, "properties": {"hex_id": 89, "h3": "88395401d1fffff", "population": 1131.0, "centroid_lon": -0.32810566810616426, "centroid_lat": 39.517966940432174, "need_sports": true, "need_health": true, "weight_sports": 1131.0, "weight_health": 1131.0}}, {"type": "Feature", "geometry": {"type": "Polygon", "coordinates": [[[-0.3642064124211317, 39.521009010625676], [-0.36979567675634467, 39.51937287962452], [-0.3708004616327046, 39.514543030801796], [-0.36621652832534635, 39.51134963290038], [-0.3606280017060199, 39.51298581065626], [-0.35962267074217386, 39.517815339552875], [-0.3642064124211317, 39.521009010625676]]]}, "properties": {"hex_id": 90, "h3": "88395401cdfffff", "population": 4004.0, "centroid_lon": -0.3652116866793653, "centroid_lat": 39.51617947804441, "need_sports": true, "need_health": true, "weight_sports": 4004.0, "weight_health": 4004.0}}, {"type": "Feature", "geometry": {"type": "Polygon", "coordinates": [[[-0.3504570331183471, 39.51142786265506], [-0.35604508699495835, 39.50979220876589], [-0.3570505071677368, 39.50496270232019], [-0.3524684191871147, 39.50176916983224], [-0.3468811028749733, 39.50340487064962], [-0.3458751370429769, 39.50823405702085], [-0.3504570331183471, 39.51142786265506]]]}, "properties": {"hex_id": 91, "h3": "88395401c7fffff", "population": 961.0, "centroid_lon": -0.3514629424846626, "centroid_lat": 39.506598672492785, "need_sports": true, "need_health": true, "weight_sports": 961.0, "weight_health": 961.0}}, {"type": "Feature", "geometry": {"type": "Polygon", "coordinates": [[[-0.3606280017060199, 39.51298581065626], [-0.36621652832534635, 39.51134963290038], [-0.3672214026046842, 39.50651980647448], [-0.36263829622212584, 39.50332647777875], [-0.3570505071677368, 39.50496270232019], [-0.35604508699495835, 39.50979220876589], [-0.3606280017060199, 39.51298581065626]]]}, "properties": {"hex_id": 92, "h3": "88395401c5fffff", "population": 7581.0, "centroid_lon": -0.36163336524673334, "centroid_lat": 39.50815630045856, "need_sports": true, "need_health": true, "weight_sports": 7581.0, "weight_health": 7581.0}}, {"type": "Feature", "geometry": {"type": "Polygon", "coordinates": [[[-0.3438628377259588, 39.51789215466466], [-0.3494511563012851, 39.51625707153131], [-0.3504570331183471, 39.51142786265506], [-0.3458751370429769, 39.50823405702085], [-0.3402875561825957, 39.50986918719422], [-0.33928113374664515, 39.51469807595586], [-0.3438628377259588, 39.51789215466466]]]}, "properties": {"hex_id": 93, "h3": "88395401c3fffff", "population": 1203.0, "centroid_lon": -0.3448692037891645, "centroid_lat": 39.51306326214028, "need_sports": true, "need_health": true, "weight_sports": 1203.0, "weight_health": 1203.0}}, {"type": "Feature", "geometry": {"type": "Polygon", "coordinates": [[[-0.3540338791500545, 39.51945094654469], [-0.35962267074217386, 39.517815339552875], [-0.3606280017060199, 39.51298581065626], [-0.35604508699495835, 39.50979220876589], [-0.3504570331183471, 39.51142786265506], [-0.3494511563012851, 39.51625707153131], [-0.3540338791500545, 39.51945094654469]]]}, "properties": {"hex_id": 94, "h3": "88395401c1fffff", "population": 3262.0, "centroid_lon": -0.35503969942794966, "centroid_lat": 39.51462173394475, "need_sports": true, "need_health": true, "weight_sports": 3262.0, "weight_health": 3262.0}}, {"type": "Feature", "geometry": {"type": "Polygon", "coordinates": [[[-0.3295672026569078, 39.48580083922794], [-0.33515257127874315, 39.48416556774997], [-0.336158803637561, 39.47933645002843], [-0.33158021228223167, 39.47614292410951], [-0.32599558077124274, 39.477778242750354], [-0.32498880356867554, 39.48260704014137], [-0.3295672026569078, 39.48580083922794]]]}, "properties": {"hex_id": 95, "h3": "88395401bdfffff", "population": 11019.0, "centroid_lon": -0.3305739237800512, "centroid_lat": 39.480972037804904, "need_sports": true, "need_health": false, "weight_sports": 11019.0, "weight_health": 0.0}}, {"type": "Feature", "geometry": {"type": "Polygon", "coordinates": [[[-0.3229748814209707, 39.4922643608111], [-0.3285605140166726, 39.49062965974518], [-0.3295672026569078, 39.48580083922794], [-0.32498880356867554, 39.48260704014137], [-0.3194039082339264, 39.484241788482], [-0.3183966747904081, 39.489070288628625], [-0.3229748814209707, 39.4922643608111]]]}, "properties": {"hex_id": 96, "h3": "88395401b9fffff", "population": 6423.0, "centroid_lon": -0.32398205887793996, "centroid_lat": 39.4874358566608, "need_sports": true, "need_health": true, "weight_sports": 6423.0, "weight_health": 6423.0}}, {"type": "Feature", "geometry": {"type": "Polygon", "coordinates": [[[-0.32599558077124274, 39.477778242750354], [-0.33158021228223167, 39.47614292410951], [-0.3325865333108366, 39.47131382964933], [-0.3280087675425245, 39.468120374208596], [-0.3224248729914011, 39.469755740042935], [-0.32141800731264725, 39.474584514118675], [-0.32599558077124274, 39.477778242750354]]]}, "properties": {"hex_id": 97, "h3": "88395401b5fffff", "population": 10809.0, "centroid_lon": -0.3270023904437912, "centroid_lat": 39.472949464575294, "need_sports": false, "need_health": false, "weight_sports": 0.0, "weight_health": 0.0}}, {"type": "Feature", "geometry": {"type": "Polygon", "coordinates": [[[-0.3194039082339264, 39.484241788482], [-0.32498880356867554, 39.48260704014137], [-0.32599558077124274, 39.477778242750354], [-0.32141800731264725, 39.474584514118675], [-0.31583384908778084, 39.47621930976465], [-0.31482652727555954, 39.481047786731125], [-0.3194039082339264, 39.484241788482]]]}, "properties": {"hex_id": 98, "h3": "88395401b1fffff", "population": 632.0, "centroid_lon": -0.3204111741327994, "centroid_lat": 39.47941330744455, "need_sports": true, "need_health": true, "weight_sports": 632.0, "weight_health": 632.0}}, {"type": "Feature", "geometry": {"type": "Polygon", "coordinates": [[[-0.3564897216726794, 39.48245068587928], [-0.3620757714051918, 39.48081379734933], [-0.36308045707961545, 39.47598374230031], [-0.3584996384374578, 39.47279089587749], [-0.35291432566683695, 39.474427831173486], [-0.35190909464040177, 39.47925756612035], [-0.3564897216726794, 39.48245068587928]]]}, "properties": {"hex_id": 99, "h3": "88395401adfffff", "population": 7664.0, "centroid_lon": -0.35749489619460734, "centroid_lat": 39.47762094695007, "need_sports": false, "need_health": false, "weight_sports": 0.0, "weight_health": 0.0}}, {"type": "Feature", "geometry": {"type": "Polygon", "coordinates": [[[-0.3397319884582033, 39.48735916392738], [-0.34531783009428096, 39.48572336916128], [-0.34632351737534034, 39.480893931203276], [-0.3417439081620352, 39.47770060824191], [-0.336158803637561, 39.47933645002843], [-0.33515257127874315, 39.48416556774997], [-0.3397319884582033, 39.48735916392738]]]}, "properties": {"hex_id": 100, "h3": "88395401abfffff", "population": 5732.0, "centroid_lon": -0.34073816457150113, "centroid_lat": 39.48253004221279, "need_sports": true, "need_health": true, "weight_sports": 5732.0, "weight_health": 5732.0}}, {"type": "Feature", "geometry": {"type": "Polygon", "coordinates": [[[-0.34989826532611545, 39.488916762184665], [-0.35548457970340064, 39.48728044397965], [-0.3564897216726794, 39.48245068587928], [-0.35190909464040177, 39.47925756612035], [-0.34632351737534034, 39.480893931203276], [-0.34531783009428096, 39.48572336916128], [-0.34989826532611545, 39.488916762184665]]]}, "properties": {"hex_id": 101, "h3": "88395401a9fffff", "population": 3582.0, "centroid_lon": -0.35090389619548645, "centroid_lat": 39.48408732027259, "need_sports": false, "need_health": false, "weight_sports": 0.0, "weight_health": 0.0}}, {"type": "Feature", "geometry": {"type": "Polygon", "coordinates": [[[-0.34274968430655195, 39.47287119349133], [-0.3483345246102086, 39.47123478149989], [-0.3493398446074861, 39.46640506989563], [-0.344760869289438, 39.46321209052713], [-0.3391767657963167, 39.46484854945775], [-0.33817090087461515, 39.4696779408118], [-0.34274968430655195, 39.47287119349133]]]}, "properties": {"hex_id": 102, "h3": "88395401a7fffff", "population": 12704.0, "centroid_lon": -0.34375549296321173, "centroid_lat": 39.468041798048596, "need_sports": false, "need_health": false, "weight_sports": 0.0, "weight_health": 0.0}}, {"type": "Feature", "geometry": {"type": "Polygon", "coordinates": [[[-0.35291432566683695, 39.474427831173486], [-0.3584996384374578, 39.47279089587749], [-0.3595044132764356, 39.467960864117124], [-0.35492442056699286, 39.46476808780293], [-0.3493398446074861, 39.46640506989563], [-0.3483345246102086, 39.47123478149989], [-0.35291432566683695, 39.474427831173486]]]}, "properties": {"hex_id": 103, "h3": "88395401a5fffff", "population": 11934.0, "centroid_lon": -0.3539195892329869, "centroid_lat": 39.46959811551953, "need_sports": false, "need_health": false, "weight_sports": 0.0, "weight_health": 0.0}}, {"type": "Feature", "geometry": {"type": "Polygon", "coordinates": [[[-0.336158803637561, 39.47933645002843], [-0.3417439081620352, 39.47770060824191], [-0.34274968430655195, 39.47287119349133], [-0.33817090087461515, 39.4696779408118], [-0.3325865333108366, 39.47131382964933], [-0.33158021228223167, 39.47614292410951], [-0.336158803637561, 39.47933645002843]]]}, "properties": {"hex_id": 104, "h3": "88395401a3fffff", "population": 9372.0, "centroid_lon": -0.33716506849394196, "centroid_lat": 39.474507351507874, "need_sports": false, "need_health": false, "weight_sports": 0.0, "weight_health": 0.0}}, {"type": "Feature", "geometry": {"type": "Polygon", "coordinates": [[[-0.34632351737534034, 39.480893931203276], [-0.35190909464040177, 39.47925756612035], [-0.35291432566683695, 39.474427831173486], [-0.3483345246102086, 39.47123478149989], [-0.34274968430655195, 39.47287119349133], [-0.3417439081620352, 39.47770060824191], [-0.34632351737534034, 39.480893931203276]]]}, "properties": {"hex_id": 105, "h3": "88395401a1fffff", "population": 8310.0, "centroid_lon": -0.3473292371815085, "centroid_lat": 39.47606451243131, "need_sports": true, "need_health": false, "weight_sports": 8310.0, "weight_health": 0.0}}, {"type": "Feature", "geometry": {"type": "Polygon", "coordinates": [[[-0.31995307851638566, 39.506749655477684], [-0.32553971252455677, 39.50511557228311], [-0.3265467689722775, 39.500287026343265], [-0.32196773643229765, 39.497092883948845], [-0.31638183998630637, 39.4987270144993], [-0.3153742385821207, 39.50355524008241], [-0.31995307851638566, 39.506749655477684]]]}, "properties": {"hex_id": 106, "h3": "883954019dfffff", "population": 178.0, "centroid_lon": -0.3209606239537161, "centroid_lat": 39.50192142598659, "need_sports": true, "need_health": true, "weight_sports": 178.0, "weight_health": 178.0}}, {"type": "Feature", "geometry": {"type": "Polygon", "coordinates": [[[-0.3468811028749733, 39.50340487064962], [-0.3524684191871147, 39.50176916983224], [-0.3534739284823622, 39.496939686026636], [-0.3488926669947829, 39.49374622316103], [-0.34330608809615265, 39.49538197093741], [-0.34230003333558656, 39.500211134614496], [-0.3468811028749733, 39.50340487064962]]]}, "properties": {"hex_id": 107, "h3": "883954018dfffff", "population": 4883.0, "centroid_lon": -0.34788710124331396, "centroid_lat": 39.49857570311414, "need_sports": false, "need_health": true, "weight_sports": 0.0, "weight_health": 4883.0}}, {"type": "Feature", "geometry": {"type": "Polygon", "coordinates": [[[-0.33011957121127106, 39.50830978466974], [-0.3357066787820979, 39.50667517806125], [-0.3367131900390837, 39.501846311858685], [-0.3321331389799831, 39.49865237252142], [-0.3265467689722775, 39.500287026343265], [-0.32553971252455677, 39.50511557228311], [-0.33011957121127106, 39.50830978466974]]]}, "properties": {"hex_id": 108, "h3": "883954018bfffff", "population": 895.0, "centroid_lon": -0.3311265715259275, "centroid_lat": 39.50348123486085, "need_sports": true, "need_health": true, "weight_sports": 895.0, "weight_health": 895.0}}, {"type": "Feature", "geometry": {"type": "Polygon", "coordinates": [[[-0.3402875561825957, 39.50986918719422], [-0.3458751370429769, 39.50823405702085], [-0.3468811028749733, 39.50340487064962], [-0.34230003333558656, 39.500211134614496], [-0.3367131900390837, 39.501846311858685], [-0.3357066787820979, 39.50667517806125], [-0.3402875561825957, 39.50986918719422]]]}, "properties": {"hex_id": 109, "h3": "8839540189fffff", "population": 1400.0, "centroid_lon": -0.3412940111402458, "centroid_lat": 39.50504031716157, "need_sports": true, "need_health": true, "weight_sports": 1400.0, "weight_health": 1400.0}}, {"type": "Feature", "geometry": {"type": "Polygon", "coordinates": [[[-0.3331397389717155, 39.493823529066965], [-0.3387258448553686, 39.492188304721246], [-0.3397319884582033, 39.48735916392738], [-0.33515257127874315, 39.48416556774997], [-0.3295672026569078, 39.48580083922794], [-0.3285605140166726, 39.49062965974518], [-0.3331397389717155, 39.493823529066965]]]}, "properties": {"hex_id": 110, "h3": "8839540187fffff", "population": 1430.0, "centroid_lon": -0.33414637145927545, "centroid_lat": 39.488994704585, "need_sports": true, "need_health": true, "weight_sports": 1430.0, "weight_health": 1430.0}}, {"type": "Feature", "geometry": {"type": "Polygon", "coordinates": [[[-0.34330608809615265, 39.49538197093741], [-0.3488926669947829, 39.49374622316103], [-0.34989826532611545, 39.488916762184665], [-0.34531783009428096, 39.48572336916128], [-0.3397319884582033, 39.48735916392738], [-0.3387258448553686, 39.492188304721246], [-0.34330608809615265, 39.49538197093741]]]}, "properties": {"hex_id": 111, "h3": "8839540185fffff", "population": 1202.0, "centroid_lon": -0.34431217538013226, "centroid_lat": 39.49055282621782, "need_sports": true, "need_health": true, "weight_sports": 1202.0, "weight_health": 1202.0}}, {"type": "Feature", "geometry": {"type": "Polygon", "coordinates": [[[-0.3265467689722775, 39.500287026343265], [-0.3321331389799831, 39.49865237252142], [-0.3331397389717155, 39.493823529066965], [-0.3285605140166726, 39.49062965974518], [-0.3229748814209707, 39.4922643608111], [-0.32196773643229765, 39.497092883948845], [-0.3265467689722775, 39.500287026343265]]]}, "properties": {"hex_id": 112, "h3": "8839540183fffff", "population": 1722.0, "centroid_lon": -0.3275538579011895, "centroid_lat": 39.49545849926915, "need_sports": true, "need_health": true, "weight_sports": 1722.0, "weight_health": 1722.0}}, {"type": "Feature", "geometry": {"type": "Polygon", "coordinates": [[[-0.3367131900390837, 39.501846311858685], [-0.34230003333558656, 39.500211134614496], [-0.34330608809615265, 39.49538197093741], [-0.3387258448553686, 39.492188304721246], [-0.3331397389717155, 39.493823529066965], [-0.3321331389799831, 39.49865237252142], [-0.3367131900390837, 39.501846311858685]]]}, "properties": {"hex_id": 113, "h3": "8839540181fffff", "population": 1526.0, "centroid_lon": -0.3377197338048282, "centroid_lat": 39.49701746450685, "need_sports": true, "need_health": true, "weight_sports": 1526.0, "weight_health": 1526.0}}, {"type": "Feature", "geometry": {"type": "Polygon", "coordinates": [[[-0.4007520047228917, 39.49669384298994], [-0.4063406787024817, 39.495054905330285], [-0.407343090603109, 39.49022354793304], [-0.4027573750697053, 39.48703144785993], [-0.3971694382029845, 39.488670431684284], [-0.396166479820705, 39.49350146941106], [-0.4007520047228917, 39.49669384298994]]]}, "properties": {"hex_id": 114, "h3": "883954013dfffff", "population": 6998.0, "centroid_lon": -0.40175490586168333, "centroid_lat": 39.491862801504645, "need_sports": false, "need_health": true, "weight_sports": 0.0, "weight_health": 6998.0}}, {"type": "Feature", "geometry": {"type": "Polygon", "coordinates": [[[-0.383986394084964, 39.501608466649124], [-0.38957486230905836, 39.49997062364243], [-0.3905782772136917, 39.495139882878576], [-0.385993770165909, 39.49194730492075], [-0.3804060392056107, 39.4935851943467], [-0.3794020780932378, 39.49841561530523], [-0.383986394084964, 39.501608466649124]]]}, "properties": {"hex_id": 115, "h3": "883954013bfffff", "population": 7102.0, "centroid_lon": -0.3849902982131291, "centroid_lat": 39.49677804192113, "need_sports": false, "need_health": false, "weight_sports": 0.0, "weight_health": 0.0}}, {"type": "Feature", "geometry": {"type": "Polygon", "coordinates": [[[-0.39416019638928684, 39.503163270655634], [-0.3997491362600137, 39.501524903464656], [-0.4007520047228917, 39.49669384298994], [-0.396166479820705, 39.49350146941106], [-0.3905782772136917, 39.495139882878576], [-0.38957486230905836, 39.49997062364243], [-0.39416019638928684, 39.503163270655634]]]}, "properties": {"hex_id": 116, "h3": "8839540139fffff", "population": 6731.0, "centroid_lon": -0.39516355414322063, "centroid_lat": 39.49833252616145, "need_sports": true, "need_health": false, "weight_sports": 6731.0, "weight_health": 0.0}}, {"type": "Feature", "geometry": {"type": "Polygon", "coordinates": [[[-0.3869972747958568, 39.48711658695899], [-0.39258474028982593, 39.485478127184074], [-0.39358778850478277, 39.48064711239456], [-0.3890039173434019, 39.47745487719311], [-0.38341718881188097, 39.47909338330627], [-0.38241359454320917, 39.48392407827667], [-0.3869972747958568, 39.48711658695899]]]}, "properties": {"hex_id": 117, "h3": "8839540137fffff", "population": 9414.0, "centroid_lon": -0.3880008120611854, "centroid_lat": 39.48228588812352, "need_sports": true, "need_health": true, "weight_sports": 9414.0, "weight_health": 9414.0}}, {"type": "Feature", "geometry": {"type": "Polygon", "coordinates": [[[-0.3971694382029845, 39.488670431684284], [-0.4027573750697053, 39.48703144785993], [-0.4037598769970905, 39.48220011334578], [-0.39917498840921123, 39.47900808237465], [-0.39358778850478277, 39.48064711239456], [-0.39258474028982593, 39.485478127184074], [-0.3971694382029845, 39.488670431684284]]]}, "properties": {"hex_id": 118, "h3": "8839540135fffff", "population": 9580.0, "centroid_lon": -0.39817242924818386, "centroid_lat": 39.48383941306885, "need_sports": true, "need_health": false, "weight_sports": 9580.0, "weight_health": 0.0}}, {"type": "Feature", "geometry": {"type": "Polygon", "coordinates": [[[-0.3804060392056107, 39.4935851943467], [-0.385993770165909, 39.49194730492075], [-0.3869972747958568, 39.48711658695899], [-0.38241359454320917, 39.48392407827667], [-0.3768266006959965, 39.48556201415271], [-0.3758225500523005, 39.49039241225501], [-0.3804060392056107, 39.4935851943467]]]}, "properties": {"hex_id": 119, "h3": "8839540133fffff", "population": 12142.0, "centroid_lon": -0.38141003293873027, "centroid_lat": 39.48875479240757, "need_sports": false, "need_health": false, "weight_sports": 0.0, "weight_health": 0.0}}, {"type": "Feature", "geometry": {"type": "Polygon", "coordinates": [[[-0.3905782772136917, 39.495139882878576], [-0.396166479820705, 39.49350146941106], [-0.3971694382029845, 39.488670431684284], [-0.39258474028982593, 39.485478127184074], [-0.3869972747958568, 39.48711658695899], [-0.385993770165909, 39.49194730492075], [-0.3905782772136917, 39.495139882878576]]]}, "properties": {"hex_id": 120, "h3": "8839540131fffff", "population": 11226.0, "centroid_lon": -0.3915817247666474, "centroid_lat": 39.49030916111911, "need_sports": true, "need_health": false, "weight_sports": 11226.0, "weight_health": 0.0}}, {"type": "Feature", "geometry": {"type": "Polygon", "coordinates": [[[-0.41092722141871096, 39.498247074285175], [-0.4165163664964563, 39.49660761228289], [-0.41751823168154606, 39.49177593530976], [-0.412931498568354, 39.48858403990879], [-0.407343090603109, 39.49022354793304], [-0.4063406787024817, 39.495054905330285], [-0.41092722141871096, 39.498247074285175]]]}, "properties": {"hex_id": 121, "h3": "883954012bfffff", "population": 1792.0, "centroid_lon": -0.4119295759093532, "centroid_lat": 39.49341571316859, "need_sports": true, "need_health": true, "weight_sports": 1792.0, "weight_health": 1792.0}}, {"type": "Feature", "geometry": {"type": "Polygon", "coordinates": [[[-0.41393345397430137, 39.48375238576459], [-0.41952159580205023, 39.4821123074799], [-0.4205230947808824, 39.47728035676437], [-0.41593699855696237, 39.47408880391709], [-0.410349593540296, 39.47572892814276], [-0.40934754800032946, 39.48056055926868], [-0.41393345397430137, 39.48375238576459]]]}, "properties": {"hex_id": 122, "h3": "8839540127fffff", "population": 13673.0, "centroid_lon": -0.4149354420853575, "centroid_lat": 39.47892075082372, "need_sports": true, "need_health": true, "weight_sports": 13673.0, "weight_health": 13673.0}}, {"type": "Feature", "geometry": {"type": "Polygon", "coordinates": [[[-0.407343090603109, 39.49022354793304], [-0.412931498568354, 39.48858403990879], [-0.41393345397430137, 39.48375238576459], [-0.40934754800032946, 39.48056055926868], [-0.4037598769970905, 39.48220011334578], [-0.4027573750697053, 39.48703144785993], [-0.407343090603109, 39.49022354793304]]]}, "properties": {"hex_id": 123, "h3": "8839540123fffff", "population": 3374.0, "centroid_lon": -0.40834553519427796, "centroid_lat": 39.48539220963215, "need_sports": true, "need_health": true, "weight_sports": 3374.0, "weight_health": 3374.0}}, {"type": "Feature", "geometry": {"type": "Polygon", "coordinates": [[[-0.41751823168154606, 39.49177593530976], [-0.42310711047083976, 39.49013590293518], [-0.42410851912151826, 39.48530392925556], [-0.41952159580205023, 39.4821123074799], [-0.41393345397430137, 39.48375238576459], [-0.412931498568354, 39.48858403990879], [-0.41751823168154606, 39.49177593530976]]]}, "properties": {"hex_id": 124, "h3": "8839540121fffff", "population": 1254.0, "centroid_lon": -0.418520129584764, "centroid_lat": 39.48694427741803, "need_sports": true, "need_health": true, "weight_sports": 1254.0, "weight_health": 1254.0}}, {"type": "Feature", "geometry": {"type": "Polygon", "coordinates": [[[-0.3911498542489317, 39.51765528594187], [-0.39673979745284876, 39.51601753568104], [-0.3977430326467345, 39.51118674988077], [-0.39315687129667004, 39.50799403403233], [-0.38756766565803386, 39.50963183065065], [-0.3865638838681613, 39.51446229675392], [-0.3911498542489317, 39.51765528594187]]]}, "properties": {"hex_id": 125, "h3": "883954011dfffff", "population": 4520.0, "centroid_lon": -0.3921535789072102, "centroid_lat": 39.5128248162039, "need_sports": true, "need_health": true, "weight_sports": 4520.0, "weight_health": 4520.0}}, {"type": "Feature", "geometry": {"type": "Polygon", "coordinates": [[[-0.37438043722599185, 39.52256634651153], [-0.3799701740303605, 39.520929691350126], [-0.3809744125849578, 39.516099522695676], [-0.37638946072095775, 39.51290632902838], [-0.3708004616327046, 39.514543030801796], [-0.36979567675634467, 39.51937287962452], [-0.37438043722599185, 39.52256634651153]]]}, "properties": {"hex_id": 126, "h3": "883954011bfffff", "population": 3638.0, "centroid_lon": -0.37538516523021104, "centroid_lat": 39.51773649404324, "need_sports": true, "need_health": true, "weight_sports": 3638.0, "weight_health": 3638.0}}, {"type": "Feature", "geometry": {"type": "Polygon", "coordinates": [[[-0.3845559532509716, 39.52412295380613], [-0.3901461622503321, 39.52248577433363], [-0.3911498542489317, 39.51765528594187], [-0.3865638838681613, 39.51446229675392], [-0.3809744125849578, 39.516099522695676], [-0.3799701740303605, 39.520929691350126], [-0.3845559532509716, 39.52412295380613]]]}, "properties": {"hex_id": 127, "h3": "8839540119fffff", "population": 1958.0, "centroid_lon": -0.38556013476684514, "centroid_lat": 39.51929278154519, "need_sports": true, "need_health": true, "weight_sports": 1958.0, "weight_health": 1958.0}}, {"type": "Feature", "geometry": {"type": "Polygon", "coordinates": [[[-0.3773937888726614, 39.5080761827166], [-0.3829825225905046, 39.506438910274646], [-0.383986394084964, 39.501608466649124], [-0.3794020780932378, 39.49841561530523], [-0.37381408178989495, 39.50005293427828], [-0.3728096641277168, 39.50488305805816], [-0.3773937888726614, 39.5080761827166]]]}, "properties": {"hex_id": 128, "h3": "8839540117fffff", "population": 2728.0, "centroid_lon": -0.3783981496434467, "centroid_lat": 39.50324605519551, "need_sports": true, "need_health": true, "weight_sports": 2728.0, "weight_health": 2728.0}}, {"type": "Feature", "geometry": {"type": "Polygon", "coordinates": [[[-0.38756766565803386, 39.50963183065065], [-0.39315687129667004, 39.50799403403233], [-0.39416019638928684, 39.503163270655634], [-0.38957486230905836, 39.49997062364243], [-0.383986394084964, 39.501608466649124], [-0.3829825225905046, 39.506438910274646], [-0.38756766565803386, 39.50963183065065]]]}, "properties": {"hex_id": 129, "h3": "8839540115fffff", "population": 3291.0, "centroid_lon": -0.3885714800946028, "centroid_lat": 39.50480138332305, "need_sports": true, "need_health": true, "weight_sports": 3291.0, "weight_health": 3291.0}}, {"type": "Feature", "geometry": {"type": "Polygon", "coordinates": [[[-0.3708004616327046, 39.514543030801796], [-0.37638946072095775, 39.51290632902838], [-0.3773937888726614, 39.5080761827166], [-0.3728096641277168, 39.50488305805816], [-0.3672214026046842, 39.50651980647448], [-0.36621652832534635, 39.51134963290038], [-0.3708004616327046, 39.514543030801796]]]}, "properties": {"hex_id": 130, "h3": "8839540113fffff", "population": 2293.0, "centroid_lon": -0.3718052791135265, "centroid_lat": 39.50971320066296, "need_sports": true, "need_health": true, "weight_sports": 2293.0, "weight_health": 2293.0}}, {"type": "Feature", "geometry": {"type": "Polygon", "coordinates": [[[-0.3809744125849578, 39.516099522695676], [-0.3865638838681613, 39.51446229675392], [-0.38756766565803386, 39.50963183065065], [-0.3829825225905046, 39.506438910274646], [-0.3773937888726614, 39.5080761827166], [-0.37638946072095775, 39.51290632902838], [-0.3809744125849578, 39.516099522695676]]]}, "properties": {"hex_id": 131, "h3": "8839540111fffff", "population": 2812.0, "centroid_lon": -0.3819786837716392, "centroid_lat": 39.51126937271006, "need_sports": true, "need_health": true, "weight_sports": 2812.0, "weight_health": 2812.0}}, {"type": "Feature", "geometry": {"type": "Polygon", "coordinates": [[[-0.4180982359754032, 39.5142944006457], [-0.42368885572977205, 39.51265503059448], [-0.42469054021249686, 39.50782330853161], [-0.420102152108824, 39.50463127598134], [-0.4145122697680427, 39.50627069199261], [-0.41351003818130116, 39.51110209458808], [-0.4180982359754032, 39.5142944006457]]]}, "properties": {"hex_id": 132, "h3": "883954010dfffff", "population": 9350.0, "centroid_lon": -0.41910041000443066, "centroid_lat": 39.50946299446571, "need_sports": true, "need_health": true, "weight_sports": 9350.0, "weight_health": 9350.0}}, {"type": "Feature", "geometry": {"type": "Polygon", "coordinates": [[[-0.4013267863102572, 39.51921032014443], [-0.40691720116046, 39.517572045413786], [-0.4079198895242033, 39.51274094001107], [-0.40333270993184717, 39.50954842893543], [-0.3977430326467345, 39.51118674988077], [-0.39673979745284876, 39.51601753568104], [-0.4013267863102572, 39.51921032014443]]]}, "properties": {"hex_id": 133, "h3": "883954010bfffff", "population": 823.0, "centroid_lon": -0.4023299642059175, "centroid_lat": 39.514379530748634, "need_sports": true, "need_health": true, "weight_sports": 823.0, "weight_health": 823.0}}, {"type": "Feature", "geometry": {"type": "Polygon", "coordinates": [[[-0.4115052084541103, 39.52076462490738], [-0.4170960946759165, 39.51912582555625], [-0.4180982359754032, 39.5142944006457], [-0.41351003818130116, 39.51110209458808], [-0.4079198895242033, 39.51274094001107], [-0.40691720116046, 39.517572045413786], [-0.4115052084541103, 39.52076462490738]]]}, "properties": {"hex_id": 134, "h3": "8839540109fffff", "population": 9803.0, "centroid_lon": -0.41250783935295254, "centroid_lat": 39.515933515948305, "need_sports": true, "need_health": true, "weight_sports": 9803.0, "weight_health": 9803.0}}, {"type": "Feature", "geometry": {"type": "Polygon", "coordinates": [[[-0.4043354883885613, 39.50471734590205], [-0.4099248996316104, 39.5030784543762], [-0.41092722141871096, 39.498247074285175], [-0.4063406787024817, 39.495054905330285], [-0.4007520047228917, 39.49669384298994], [-0.3997491362600137, 39.501524903464656], [-0.4043354883885613, 39.50471734590205]]]}, "properties": {"hex_id": 135, "h3": "8839540107fffff", "population": 5519.0, "centroid_lon": -0.405338299534203, "centroid_lat": 39.49988628173618, "need_sports": true, "need_health": true, "weight_sports": 5519.0, "weight_health": 5519.0}}, {"type": "Feature", "geometry": {"type": "Polygon", "coordinates": [[[-0.4145122697680427, 39.50627069199261], [-0.420102152108824, 39.50463127598134], [-0.4211039269861888, 39.49979957636867], [-0.4165163664964563, 39.49660761228289], [-0.41092722141871096, 39.498247074285175], [-0.4099248996316104, 39.5030784543762], [-0.4145122697680427, 39.50627069199261]]]}, "properties": {"hex_id": 136, "h3": "8839540105fffff", "population": 10487.0, "centroid_lon": -0.41551453407132133, "centroid_lat": 39.50143930824965, "need_sports": true, "need_health": false, "weight_sports": 10487.0, "weight_health": 0.0}}, {"type": "Feature", "geometry": {"type": "Polygon", "coordinates": [[[-0.3977430326467345, 39.51118674988077], [-0.40333270993184717, 39.50954842893543], [-0.4043354883885613, 39.50471734590205], [-0.3997491362600137, 39.501524903464656], [-0.39416019638928684, 39.503163270655634], [-0.39315687129667004, 39.50799403403233], [-0.3977430326467345, 39.51118674988077]]]}, "properties": {"hex_id": 137, "h3": "8839540103fffff", "population": 2136.0, "centroid_lon": -0.39874630051492554, "centroid_lat": 39.506355982841114, "need_sports": true, "need_health": true, "weight_sports": 2136.0, "weight_health": 2136.0}}, {"type": "Feature", "geometry": {"type": "Polygon", "coordinates": [[[-0.4079198895242033, 39.51274094001107], [-0.41351003818130116, 39.51110209458808], [-0.4145122697680427, 39.50627069199261], [-0.4099248996316104, 39.5030784543762], [-0.4043354883885613, 39.50471734590205], [-0.40333270993184717, 39.50954842893543], [-0.4079198895242033, 39.51274094001107]]]}, "properties": {"hex_id": 138, "h3": "8839540101fffff", "population": 9069.0, "centroid_lon": -0.4089226105898649, "centroid_lat": 39.50790985335394, "need_sports": true, "need_health": true, "weight_sports": 9069.0, "weight_health": 9069.0}}]}